Lng,Lat,name,cuisine,street,phone
-74.00316629999999,40.7487521975452,10th Avenue Pizza & Cafe,pizza,10th Avenue,+1 212-366-9222
-74.0088512,40.70505159754521,11 Hanover Greek,greek,Hanover Street,+12127854000
-74.00873399999999,40.7093200975452,22 Thai Cuisine,thai,Nassau Street,+1 212-732-9250
-73.9544692,40.769574897545205,2nd Ave Deli,jewish,1st Avenue,+1 212-737-1700
-73.94931700000001,40.780893297545205,3 Decker Restaurant & Cafe,diner,2nd Avenue,+1 212-289-9936; +1 212-289-6571
-73.994264,40.760965897545205,44 & X,american,10th Avenue,212-977-1170
-73.97795959999999,40.787047697545205,5 Napkin Burger,burger,Broadway,+1 212 333 4488
-73.973922,40.647540797545204,620 On Caton Pizzeria,pizza,Caton Avenue,718-436-3502
-73.9737769,40.6475199975452,624 Kam Hai,chinese,Caton Avenue,718-436-9748
-73.9715083,40.6977415975452,66S Fusion,sushi;ramen,Flushing Avenue,+1-718-222-0050
-73.9938932,40.702941497545204,7 Old Fulton,international,Old Fulton,(718) 797-0007
-73.98149790000001,40.667242597545204,7th Avenue Donuts & Diner,diner;donut,7th Avenue,+1-718-768-0748
-73.9687902,40.799320097545205,Aangan,indian,Broadway,+1 212 280 4100
-73.9124469,40.766773697545204,Aaron Sushi,sushi;Japanese,Steinway Street,+1-718-728-8816
-73.9977207,40.678937497545206,Abilene,american;mexican;brunch,Court Street,+1-718-522-6900
-73.9627025,40.7120324975452,Abracadabra,turkish,Bedford Avenue,+1 (347) 844-9157
-73.89403490000001,40.7006939975452,Ace Pizzeria and Restaurant,pizza,Myrtle Avenue,+1-718-418-0038
-73.97111120000001,40.7933325975452,Acqua,italian; pizza,Amsterdam Avenue,+1 212 222 2752
-74.0016978,40.7082305975452,ACQUA,italian,Peck Slip,+12123494433
-73.90205970000001,40.70034179754521,Acres BBQ,barbeque;sandwich;regional;brunch,Myrtle Avenue,+1-718-497-8462
-73.7440496,40.7655544975452,Aegea West Gyros & Pizza,Greek;Italian;pizza,Northern Boulevard,+1-718-423-4429
-73.8624358,40.8846426975452,Agra Grill,indian,White Plains Road,+1-347-346-5228
-73.92143229999999,40.6980672975452,Agra Heights,indian,Wilson Avenue,+1-718-443-5700
-73.9280327,40.704132197545206,Ajihei,japanese,Knickerbocker Avenue,+1-718-552-2065
-73.99217220000001,40.74661789754521,Ajisen Ramen,japanese,West 28th Street,+1-646-638-0888
-73.91613290000001,40.7025314975452,Akaru Sushi,sushi;tea,Wyckoff Avenue,+1-718-928-7688
-73.98143859999999,40.730697897545205,Akina Sushi,sushi,East 14th Street,(212) 388-1127
-73.9522998,40.769169397545205,Aki Sushi,japanese,York Avenue,+1-212-628-8885
-73.9576457,40.7700896975452,A La Turka Restaurant,turkish,2nd Avenue,+1 (212) 744-2424
-73.81885809999999,40.709277897545206,Alba Ristorante & Pizzaria,italian,Queens Boulevard,+1-718-291-1620
-73.92682950000001,40.8654854975452,Albert's Mofongo,latin_american,Broadway,+1-212-569-3441
-73.9937954,40.73872519754521,Aldea,spanish,West 17th Street,+1 212 675-7223
-73.9813928,40.675289797545204,al di la Trattoria,italian,5th Avenue,+1-718-783-4565
-73.9917722,40.74012419754521,Aleo,italian,West 20th Street,+1-212-691-8136
-73.91112559999999,40.6948491975452,Alex Luncheonette,dominican;chicken,Knickerbocker Avenue,+1-718-417-9465
-76.5098667,43.460391797545206,Alex's On the Water,regional,East 1st Street,+1 315 343 5121
-74.00885670000001,40.704701797545205,Al Horno,mexican,Pearl Street,+12124808500
-73.67581740000001,42.7362342975452,Ali Baba,turkish;mediterranean,15th Street,+1-518-273-2222
-73.97009179999999,40.7524053975452,Ali Baba's Terrace,turkish,2nd Avenue,+1-212-888-8622
-73.9190209,40.742881497545206,Alpha Donuts,donuts,Queens Boulevard,+1-718-472-4725
-73.9681963,40.6801088975452,Alta Calidad,mexican,Vanderbilt Avenue,+1-718-622-1111
-73.7512501,42.65268729754521,Ama Cocina,mexican,Sheridan Avenue,+1-518-776-4550
-73.9236569,40.7020214975452,Amanda's Kitchen,salvadorian,Suydam Street,+1-347-488-6297
-73.9218056,40.7030750975452,Amaranto,mexican,Hart Street,+1-718-576-6001
-73.9621925,40.759009297545205,Amaze,Japanese;Chinese,1st Avenue,+1-212-688-8808
-73.97685990000001,40.785479597545205,Amaze Fusion & Lounge,japanese,Amsterdam Avenue,+1-212-874-1076
-74.0057689,40.7245102975452,Amelia's Diner,american;burger;wrap;breakfast,Varick Street,+1-212-925-5998
-74.0101564,40.719127197545205,American Cut,steak,Greenwich Street,+1 212 226-4736
-73.9703599,40.7607198975452,American Cut Steakhouse Midtown,steak_house;modern,East 56th Street,+1 212-388-5277
-73.7922692,40.7108158975452,Amina Thai,asian;chinese,Hillside Avenue,+1-718-880-1804
-73.9446152,40.7114031975452,Ammazzacaffè,italian;coffee,Grand Street,+1-929-250-2875
-73.69802390000001,43.329806497545206,Amore Pizza,pizza,Aviation Road,+1 518 792 2285
-73.9540704,40.7749658975452,Amura,japanese,2nd Avenue,+1-212-772-1688
-73.95022990000001,40.8024602975452,Amy Ruth's,southern,West 116th Street,+1-212-280-8779
-73.95299890000001,40.694819597545205,Anaiah's Restaurant,latin_american,Myrtle Avenue,+1-718-858-8868
-73.94527690000001,40.7827949975452,Andaman Thai Bistro,thai,1st Avenue,+1 212-722-5671
-73.9898634,40.751674197545206,Andrews Coffee Shop,american,7th Avenue,+1-212-695-1962
-73.9500177,40.6833902975452,Angela's,caribbean,Nostrand Avenue,+1 718 552 2297
-74.2513558,40.513402797545204,Angelina's,italian,Ellis Street,+1 718 227-2900
-73.7486679,42.65333429754521,Angelo's 677 Prime,steak_house,Broadway,518-427-7463
-73.91404370000001,40.6850824975452,Angie's Cafe & Grill,Spanish;diner,Broadway,+1-718-573-7765
-77.05161159999999,42.14280699754521,Aniello's Pizzeria,pizza,East Market Street,607-962-2060
-73.9733554,40.7900953975452,Anthi's Greek Food,greek,Amsterdam Avenue,+1 212-787-1007
-73.8963266,40.70481389754521,Antica Trattoria,italian,Fresh Pond Road,(718) 386-1559
-76.2255735,43.1392275975452,Antonio's Liverpool Pizzeria,pizza,Oswego Road,+1-315-622-0045
-73.88666140000001,40.85417129754521,Antonio's Trattoria,italian,Belmont Avenue,+1 718 733-6630
-73.8706295,40.734830697545206,Applebee's Grill + Bar,american,Queens Boulevard,+1 718-271-7999
-73.79799679999999,40.704367397545205,Applebee’s Neighborhood Grill & Bar,american,Jamaica Avenue,+1-347-571-0921
-73.98244270000001,40.7646805975452,Applejack Diner,diner,Broadway,+1 212-586-6075
-73.9721848,40.76078189754521,Aquavit,scandinavian,East 55th Street,+1 212-307-7311
-73.924545,40.7046454975452,Arepera Guacuco,venezuelan,Irving Avenue,+1-347-305-3300
-74.00673,40.735136997545204,Aria West Village,italian,Perry Street,+1-212-242-4233
-73.9107752,40.6946746975452,Aris Pollos A La Brasa,chicken,Knickerbocker Avenue,+1-718-381-9400
-73.867919,40.7238626975452,Aroma Indian,indian,Woodhaven Boulevard,718-200-0010
-74.00889190000001,40.7097615975452,Arou Dee Thai Kitchen,thai,John Street,(212) 528-9922
-73.978758,40.77814939754521,Arte Cafe,italian,West 73rd Street,+1-212-501-7014
-73.78962709999999,40.766611997545205,Arya Kabob House,afghan,Francis Lewis Boulevard,+1 347 368-4471
-73.9500566,40.77985429754521,Ashoka on 2nd,indian,2nd Avenue,+1 212-876-9100
-76.49579159999999,42.4403319975452,Asia Cuisine,korean;japanese,North Aurora Street,607-256-8818
-73.89947590000001,40.710172797545205,Asomm Thai,thai; salad; soup,Fresh Pond Road,+1-929-387-8065
-73.97442559999999,40.76131809754521,Astor Court,international;Fine_Dining,East 55th Street,+1-212-339-6857
-73.99211690000001,40.69962379754521,Asya,indian,Henry Street,+1 718 858-6700
-73.647063,40.608237697545206,A Taberna,portuguese,Austin Boulevard,+1-516-432-0455
-73.9465284,40.8162289975452,A Taste of Seafood,seafood,Frederick Douglas Boulevard,2128660275
-73.98639109999999,40.664868897545205,Athena,greek,6th Avenue,+1-718-965-4578
-73.9814879,40.7720498975452,Atlantic Grill,seafood,West 64th Street,+1 212-787-4663
-73.8019752,40.7080936975452,Atomic Wings,wings;chicken;gyros,Hillside Avenue,+1-718-480-6642
-73.9848705,40.671151697545206,Authentic Szechuan,chinese;japanese,5th Avenue,+1-718-788-2226
-73.9944417,40.685753997545206,Awash Ethiopian Restaurant,ethiopian,Court Street,+1-718-243-2151
-73.9921405,40.75559659754521,Aya Sushi,sushi;japanese,West 39th Street,+1-212-221-5849
-73.7002712,40.6397213975452,¡Ay Carumba!,mexican;breakfast,Broadway,+1-516-837-0818
-73.64375240000001,40.7485796975452,Azzurro's Pizzeria Restaurant and Bar,italian,Jericho Turnpike,516-747-6616
-73.9914975,40.7145454975452,Bacaro,italian,Division Street,(212) 941-5060
-73.9843598,40.6869246975452,Bacchus,french,Atlantic Avenue,+1-718-852-1572
-73.6918495,42.73060679754521,Bacchus Woodfired,pizza,2nd Street,518-687-0345
-74.43248299999999,41.424726797545205,Badabing Pizzeria,pizza,County Road 78,845-341-0009
-74.0060257,40.7397042975452,Bagatelle,french,Little West 12th Street,+1-212-488-2110
-73.9449741,40.711388797545204,Bahia,salvadorian;coffee,Grand Street,+1-718-218-9592
-73.9898018,40.7419337975452,Baita by Birreria,italian,5th Avenue,+1 (212) 937-8910
-73.985049,40.7325829975452,Bait and Hook,seafood,2nd Avenue,(212) 260-8015
-73.9133194,40.774203697545204,Balkh Shish Kabab House,afghan,31st Street,+1-718-721-5020
-73.9942698,40.7127475975452,Bamboo,chinese,Market Street,(212) 233-0383
-73.8993469,40.7007870975452,Bamboo Tropical,juice;salad,71st Avenue,+1-718-381-2440
-73.979697,40.743229197545205,Banc,american,3rd Avenue,+1-212-252-0146
-73.9429411,40.79025339754521,Bangklyn East Harlem,thai,2nd Avenue,+1 646-429-8128
-73.9533049,40.7753533975452,Bangkok Cuisine,thai,2nd Avenue,+1 212-988-1112
-76.22064540000001,43.12817119754521,Bangkok Thai Restaurant,asian;thai,Oswego Road,+1-315-451-4621
-73.9856638,40.7324747975452,Baohaus,taiwanese,East 14th Street,(646) 669-8889
-73.9479452,40.7897094975452,barbarrio,latin_fusion,Lexington Avenue,+1 917-409-0071
-73.90742840000001,40.700113097545206,Barcelo,sandwich;seafood;chicken;,Myrtle Avenue,+1-917-909-1511
-73.90883170000001,40.691241297545204,BARCHAA,peruvian,Wilson Avenue,+1-347-405-6745
-73.94902890000002,40.777744997545206,Bareburger,burger,1st Avenue,+1 212-390-1344
-73.91284370000001,40.7741310975452,Bareburger,burger,31st Street,+1-718-204-7167
-74.0010792,40.742109797545204,Bareburger,burger,8th Avenue,+1 (212) 414-2273
-73.9924085,40.689217897545205,Bareburger,burger,Court Street,+1-347-529-6673
-73.99825390000001,40.72828909754521,Bareburger,burger,La Guardia Place,+1-212-477-8125
-73.9536871,40.7435020975452,Bareburger,burger,Vernon Boulevard,+1-718-937-2273
-73.9972115,40.7376976975452,Bareburger,burger; salad; sandwich,West 14th Street,+1-646-596-7980
-73.9503873,40.78406979754521,Barking Dog,american,3rd Avenue,(212) 831-1800
-73.882834,40.749781797545204,Barriles Restaurante Colombiano,columbian;latin_american,37th Avenue,+1-347-642-9811
-73.9910207,40.6712414975452,Bar Tano,italian,3rd Avenue,+1 718 499 3400
-73.9223507,40.7607010975452,Bartolino's Italian Restaurant,italian,Broadway,+1-718-728-0430
-73.98471740000001,40.666850597545206,Bar Toto,italian,11th Street,+1-718-768-4698
-73.9897726,40.726038697545206,Bar Verde,mexican,2nd Avenue,+1-212-777-6965
-75.98055459999999,42.0958620975452,Basha's Lebanese Grill,lebanese;middle_eastern,Vestal Parkway East,+1-607-333-9010
-73.9201255,40.7707450975452,Basil Brick Oven Pizza,pizza;italian,Astoria Boulevard,+1-718-204-1205
-74.0058025,40.719575997545206,Bâtard,french,West Broadway,+1-212-219-2777
-73.3283066,40.89978829754521,Batata Cafe,cafe,Fort Salonga Road,+1 631 754 4439
-73.9988912,40.7156799975452,Bayard Sushi,sushi,Bayard Street,+1-646-922-7808
-76.2257615,43.139409697545204,Bayberry Fish Cove,seafood;fish,Oswego Road,+1-315-652-1454
-73.99117159999999,43.6859925975452,becks TAVERN,german;american,Peaceful Valley Road,5182515100
-73.920741,40.68525429754521,Bed-Stuy Fish Fry,soul_food;pasta;seafood,Halsey Street,+1-347-405-9820
-73.98616,40.7330397975452,Beijing Chinese Restaurant,chinese,East 14th Street,(212) 982-8966
-73.909085,40.7070971975452,Beijing Restaurant,chinese,Woodward Avenue,(718) 386-4588
-73.9107423,40.7133969975452,Bella Donna Pizzeria,pizza,54th Street,+1-718-497-1744
-73.99470129999999,40.7450974975452,Bella Napoli,italian,7th Avenue,212-675-4050
-73.8952666,40.7123468975452,Bella Nova's,pizza;italian;pasta,Metropolitan Avenue,+1-718-456-4786
-73.9687446,40.7609516975452,Belmora Pizza,italian,East 57th Street,+1 212-935-2080
-73.82111450000001,40.7248021975452,Benjys,pizza;sushi,Main Street,+1-718-268-0791
-74.0056931,40.709001697545204,Bennie Thai Cafe,thai,Fulton Street,+12125878930
-73.86132059999998,40.7294074975452,Ben's Best Kosher Delicatessen,Jewish;soup;sandwich,Queens Boulevard,+1 718 897 1700
-77.0531607,42.143245797545205,Bento ya Masako,japanese,East Market Street,607-936-3659
-73.9317428,40.617698997545205,Benvenuti,pizza,Flatbush Avenue,7183378100
-73.97709090000001,40.681618097545204,Besito,dominican,5th Avenue,+1-718-230-1703
-73.9927069,40.72546299754521,Bessou,japanese,Bleecker Street,(212) 228-8502
-73.75888909999999,42.654644397545205,Better Bite,american,Washington Avenue,518-694-4400
-74.16911590000001,41.426844597545205,Betty's Country Kitchen,cafe/diner,West Main Street,(845) 614-5422
-73.9858488,40.7329096975452,Beyond Sushi,sushi,East 14th Street,(646) 861-2889
-75.8526255,42.929753897545204,BG Buda’s Cucina Italiana,italian,Albany Street,315.663.1530
-73.9880573,40.728414197545206,B&H Dairy,omelette; breakfast,2nd Avenue,+1-212-505-8065
-73.9678497,40.71198429754521,Bia,vietnamese,South 6th Street,+1 718 388-0908
-73.97338609999998,40.7525340975452,Bierhaus NYC,german,3rd Avenue,+1 212-867-2337
-78.8709352,42.8880310975452,Big Ditch Brewing Company,american,East Huron Street,+1 716 854 5050
-73.9867026,40.6880240975452,Bijan's,mediterranean;persian;brunch,Hoyt Street,+1-718-855-5574
-74.0056248,40.7402703975452,Bill's Bar & Burger,burger,9th Avenue,+1 212-414-3003
-73.97755009999999,40.7593743975452,Bill's Bar & Burger,burger,West 51st Street,+1 212-331-0328
-76.5107792,43.4561479975452,Bistro 197,regional,West 1st Street,+1 315 343 2930
-73.961895,40.7588838975452,Bistro Vendôme,French;Italian,East 58th Street,+1-212-935-9100
-73.92433359999998,40.7020378975452,BK JANI,pakistani;burger;kebab,Knickerbocker Avenue,+1-347-460-5110
-74.0042425,40.7238737975452,Black Tap,burger;american,Broome Street,917 639 3089
-73.9845292,40.745371897545205,Blank Slate Coffee + Kitchen,american; coffee,Madison Avenue,+1-212-683-7800
-73.98570129999999,40.732846697545206,Blind Pig,american,East 14th Street,+1-212-209-1573
-73.993377,40.738528097545206,BLT Fish,seafood,West 17th Street,+1 212 691-8888
-73.9995703,40.732039697545204,Blue Hill,american,Washington Place,+1-212-539-1776
-73.9909251,40.724460797545206,Blue Ribbon Fried Chicken,american;chicken,East 1st Street,+1 212 228-0404
-73.9947443,40.614818197545205,Blue Sky Jwy Restaurant,chinese,18th Avenue,+1-718-837-8818
-74.015376,40.7146177975452,Blue Smoke,american,Vesey Street,+1 212-889-2005
-73.9756765,40.75460309754521,Bobby Van's Steakhouse - Park Ave,steak_house,Park Avenue,(212) 867-5490
-78.69540129999999,42.9748246975452,Bob Evans,american,Transit Road,+1-716-634-4480
-73.92397640000002,40.866868397545204,Bocaditos Bistro,latin_american;Caribbean,Broadway,+1-347-617-1606
-73.88211740000001,40.7373469975452,Boca Juniors Restaurant & Bar,argentinian,Queens Boulevard,+1-718-429-2077
-74.00293559999999,40.744616797545206,Bocca di Bacco,italian,9th Avenue,+1 212 989 8400
-73.9991738,40.716357097545206,Bodhi,chinese,Mulberry Street,+1-212-233-2921
-73.97404209999999,40.78933399754521,Bodrum,mediterranean,Amsterdam Avenue,+1 (212) 799-2806
-73.95659040000001,40.769058097545205,Bohemian Spirit Restaurant,czech,East 73rd Street,+1 212-861-1038
-73.988146,40.764185397545205,Bombay Grill House,indian,9th Avenue,+1-212-977-1010
-73.9096427,40.6939802975452,Bombay Kitchen,indian,Knickerbocker Avenue,+1-347-915-1888
-76.9939104,43.0533551975452,"Bone Appetit: Smokehouse, BBQ and Bakery",barbecue,Geneva Street,+1 315 946 4600
-76.019067,43.034007497545204,Bonefish Grill,seafood,Towne Drive,315 637 0491
-73.95211809999999,40.7845228975452,Bonjour Crêpes & Wine,crepes,Lexington Avenue,+1 212-534-4300
-73.81215259999999,40.7647322975452,Book Chang Dong Soon Tofu,korean,Northern Boulevard,+1 718 961-2001
-73.6911679,42.7315008975452,Bootlegger's on Broadway,american,Broadway,518-874-4475
-73.99804870000001,40.6782209975452,Boran,thai,Court Street,+1-718-490-0207
-73.902327,40.704867797545205,Bosna Express,burgers;mediterranean,Fairview Avenue,+1-718-497-7577
-73.861139,40.8337741975452,Boston Market,american,Hugh J. Grant Circle,(347) 719-4924
-74.4122565,41.4573330975452,Botas Caborcas,pizza,North Street,(845) 467-4130
-73.99212800000001,40.74112989754521,Bouley at Home,fine_dining,West 21st Street,+1-212-255-5828
-74.01353370000001,40.706639597545205,Bravo Kosher Pizza,pizza;sushi,Trinity Place,+1-212-344-1111
-73.9889762,40.734221297545204,Bravo Pizza,pizza,East 14th Street,+1 212 253 2220
-73.9871063,40.7025576975452,Bread & Spread,sandwich;coffee,Front Street,+1-718-625-2220
-78.7576823,42.960240297545205,Break'n Eggs Creperie,breakfast,Main Street,7166343447
-73.9888514,40.727317797545204,Brick Lane Curry House,indian,2nd Avenue,+1 212-979-8787
-73.91086120000001,40.69239189754521,Bricklyn Pizza,pizza,Hancock Street,+1-718-758-5858
-73.9882214,40.7638883975452,Bricola,italian,West 51st Street,+16466785763
-73.9817243,40.6744486975452,Brooklyn Burgers & Beer,burger,5th Avenue,+1 718 788 1458
-73.98576870000001,40.75651349754521,Brooklyn Diner,diner,West 43rd Street,+1 212-265-5400
-73.9808702,40.7656333975452,Brooklyn Diner,diner,West 57th Street,+1 212-977-1957
-73.9441291,40.74625739754521,Brooks,italian;american;pub,Jackson Avenue,+1 718 937 1890
-73.9152939,40.869997897545204,Brown Sugar Bar and Restaurant,cuban,Broadway,+1-646-688-3504
-74.00899220000001,40.716715197545206,Brushstroke,japanese,Hudson Street,+1-212-791-3771
-73.9530891,40.77634299754521,Bua Thai Ramen & Robata Grill,thai,2nd Avenue,+1 212-879-7999
-73.87624170000001,41.99541339754521,Bubby's Take Away Kitchen,mexican,West Market Street,(845) 758-8226
-73.95254059999999,40.7770945975452,Budapest Café & Restaurant,hungarian,2nd Avenue,+1 212-327-1105
-73.99879840000001,40.7138650975452,Buddha Bodai,chinese,Mott Street,+1-212-566-8388
-73.83724840000001,40.7180584975452,Buenos Aires Tango Argentine Bar & Grill,Argentinian;Latin American,Queens Boulevard,+1-718-520-6488
-73.9852989,40.6864151975452,Building on Bond,american,Bond Street,+1-347-853-8687
-73.9629819,40.68252309754521,Buka,nigerian,Fulton Street,+1-347-763-0619
-73.9232382,40.71049579754521,Bunker Vietnamese,sandwich;vietnamese,Scott Avenue,+1-718-386-4282
-73.9278626,40.7048893975452,Bunna Cafe,ethiopian,Flushing Avenue,+1-347-295-2227
-73.7958216,40.792640397545206,Buona Forchetta,italian,9th Avenue,+1-718-767-2000
-73.90065909999998,40.702058097545205,Burek Pizza,pizza,Forest Avenue,+1-718-576-3147
-73.9669048,40.7642610975452,Burger Heaven,burger,Lexington Avenue,+1 212-838-3580
-73.9283824,40.7043445975452,Burger It Up,burger;chicken;sandwich;salad,Knickerbocker Avenue,+1-347-318-2618
-73.9787872,40.763884397545205,Burger Joint,american;burger,West 56th Street,2127087414
-73.9587626,40.775402097545204,Burger One,diner,Lexington Avenue,+1 212-737-0095
-73.978873,40.670368997545204,Burger Village,burger,7th Avenue,+1-718-499-4165
-73.89924599999999,40.7008071975452,Burrito Republic,mexican;burrito;taco,71st Avenue,+1-929-337-6446
-74.0059509,40.737015897545206,Bus Stop Cafe,american; breakfast; burger; salad,Hudson Street,+1-212-206-1100
-73.9670572,40.798960197545206,Busters NYC,american,Amsterdam Avenue,212 665-5045
-73.9163237,40.764363497545204,Butcher Bar,barbeque;burger,30th Avenue,+1-718-606-8140
-73.23286709999999,40.8160891975452,Butterfields,american,Old Willets Path,631-851-1507
-73.9083439,40.7030354975452,Cachapas y Mas,venezuelan,Seneca Avenue,+1-347-721-3767
-73.8518314,40.726723197545205,Café Arzu,uzbek,Queens Boulevard,+1 718 830-3335
-73.9639545,40.7743902975452,Cafe Boulud,french,East 76th Street,+1-212-772-2600
-73.9510453,40.779160397545205,Cafe d'Alsace,french,2nd Avenue,+1 212-722-5133
-73.9588041,40.710500397545204,Cafe el Puente,latin_american,South 4th Street,+1 718 388-2416
-73.9879944,40.723204497545204,Cafe Himalaya,tibetan,East 1st Street,(212) 358-0160
-73.96256559999999,40.7585693975452,Cafe Joul,french,1st Avenue,+1 212-759-3131
-73.9905279,40.7177782975452,Cafe Katja,austrian,Orchard Street,+1 212-219-9545
-73.9831224,40.777411097545205,Cafe Luxembourg,french,West 70th Street,(212) 873-7411
-73.9880009,40.7278113975452,Cafe Mocha,burger; pasta,2nd Avenue,+1-212-253-1046
-73.992188,40.75561179754521,Cafe Mofongo,dominican,West 39th Street,+1-212-465-0592
-73.984402,40.727346997545204,Cafe Mogador,moroccan,Saint Mark's Place,+1 212 677 2226
-73.9841684,40.664061397545204,Cafe Steinhof,austrian,7th Avenue,+1 718 369 7776
-73.9980066,40.7404947975452,CAFETERIA,american,7th Avenue,+1 212-414-1717
-73.78386009999998,42.67445399754521,Caffe Italia Ristorante,italian,Central Avenue,+1 518 4598029
-73.9822458,40.67428319754521,Calexico,mexican,5th Avenue,+1-347-254-7644
-74.0036027,40.7318243975452,Caliente Cab,mexican,7th Avenue South,+1-212-243-8517
-73.97361490000002,40.7830271975452,Calle Ocho,Cuban,West 81st Street,(212) 873-5025
-77.61420770000001,43.0943440975452,Cam's Pizzeria,pizza,Brighton Henrietta Town Line Road,(585) 413-0332
-76.2206204,43.128110797545204,Canale's Italian Take Out,italian,Oswego Road,+1-315-701-4323
-73.8761093,41.99473119754521,Cancun's,mexican,South Broadway,(845) 835-8207
-74.0352466,41.4346550975452,Canterbury Brook Inn,"american,_swiss",Main Street,845-534-9658
-72.34647729999999,40.993651797545205,Capaletti,italian,Noyac Rd,6317257800
-73.64143609999999,40.62828309754521,Captain Mike's,seafood,Long Beach Road,+1-516-678-4522
-73.9852684,40.72688449754521,Caracas Arepa Bar,venezuelan,East 7th Street,+1 212 529-2314
-77.7342282,43.2173259975452,Caraglio's Pizza,pizza,North Greece Road,+1-585-225-8630
-74.0002252,40.7280028975452,Carbone,italian,Thompson Street,+1-212-254-3000
-73.7360748,40.6741356975452,Caribbean Soul Rooftop Restaurant & Lounge,caribbean,Merrick Blvd,+1-718-712-1106
-73.9091561,40.699970097545204,Caribe Star,caribbean,Myrtle Avenue,(718) 386-0387
-73.91045809999999,40.7045810975452,Carlo's Pizza,pizza,Seneca Avenue,(718) 386-8526
-74.4412431,41.42617289754521,Carlos Pizzeria & Bar,pizza,Wawayanda Avenue,(845) 775-4662
-73.694487,42.723192497545206,Carmen's,spanish;american;breakfast,1st Street,+1-518-326-2064
-73.98671259999999,40.7575108975452,Carmine's,italian,West 44th Street,+1-212-221-3800
-73.9997681,40.7286314975452,Carroll Place,italian;pizza,Bleecker Street,+1-212-260-1700
-73.9542277,40.743361797545205,Casa Enrique,latin_american,49th Avenue,+1-347-448-6040
-73.987178,40.73593189754521,Casa Mono,tapas;spanish,Irving Place,+1-212-253-2773
-74.006242,40.7402994975452,Catch NYC,seafood,9th Avenue,+1-212-392-5978
-73.9885461,40.692431797545204,Cava,mediterranean,Adams Street,+1-929-296-7809
-73.91631059999999,40.86978169754521,Cavala Cafe,soup;salad;sandwich;burger;seafood;pasta;chicken,Broadway,+1-212-567-6640
-75.8417156,42.92717429754521,Cazenovia Bagel Co.,bagel,Nelson Street,+1-315-815-4209
-75.85360379999999,42.92976329754521,Cazenovia Pizza,pizza,Albany Street,315 655 4161
-73.9275766,40.807151997545205,Ceetay,pan-asian,Alexander Avenue,+1 718 618-7020
-73.8922402,40.700844397545204,Celtic Gasthaus,irish,Myrtle Avenue,+1--718-456-8341
-73.6662918,40.649353497545206,Centre Thai Bistro,thai,Atlantic Avenue,(516) 612-4858
-73.9890698,40.719296697545204,Champion Pizza,pizza,Ludlow Street,(646) 678-5589
-73.9408912,40.708461897545206,Champs Diner ,american,Meserole Street,+1-718-599-2743
-73.9920209,40.6842219975452,Chance Asian Bistro & Bar,asian,Smith Street,+1-718-242-1515
-73.9015363,40.702568197545204,Charm Thai Restaurant,thai,Woodward Avenue,+1-917-775-0706
-73.9876041,40.72003089754521,Charrua Uruguayan Restaurant,uruguayan,Essex Street,+1-212-677-5838
-73.9920567,40.736915497545205,Chat n Chew,american; burger,East 16th Street,+1-212-243-1616
-73.864133,40.7276033975452,Cheburechnaya,uzbek,63rd Drive,+1 718 897-9080
-73.9499959,40.713926197545206,Cheers Thai,thai,Metropolitan Avenue,(718) 599-4311
-73.9695811,40.797210897545206,Cheesy Pizza,pizza,Broadway,+1 212-662-6312
-73.9127541,40.693166397545205,Chef Toribio Restaurante,dominican,Wilson Avenue,+1-347-533-9551
-74.0013739,40.746087597545205,Chelsea Cottage's Viet Grill,vietnamese,9th Avenue,+1-212-366-4881;+1-212-366-4882
-73.4778557,44.697201897545206,Chen's,chinese,Cornelia Street,+1 518 562 8880
-73.91057420000001,40.694226197545206,Chen Yuan,chinese,Knickerbocker Avenue,+1-718-919-2542
-73.9881307,40.727040097545206,Cherin Sushi n Ramen,japanese,East 6th Street,+1-212-388-1348
-73.9956064,40.690750097545205,Chez Moi,french,Atlantic Avenue,+1 347 227-8337
-73.97991309999999,40.6050330975452,Chicken Delicious,american;fast_food;wings,Kings Highway,+1-718-998-8878
-73.76720440000001,40.76082739754521,Chicken Lovers,american,215-09,(718) 225-8482
-73.9117776,40.694919397545206,Chimi Mundo,dominican,Knickerbocker Avenue,+1-347-295-3600
-74.4324347,41.4247951975452,China 1,chinese,County Road 78,(845) 343-9555
-76.2205743,43.1279956975452,China 88,chinese;asian,Oswego Road,+1-315-451-8866
-73.63974920000001,43.3036295975452,China Buffet,chinese,Main Street,+1 518 793 5728
-74.0130181,40.706610897545204,China Chalet,chinese,Broadway,+1 212-943-4380
-76.2348704,43.1616472975452,China Garden,chinese;asian,Oswego Road,+1-315-652-6677
-73.952309,40.77743929754521,China Jade Szechuan Chili House,chinese;sichuan,2nd Avenue,+1 212-717-6688
-73.62020940000001,40.8747628975452,China Palace,chinese,Forest Avenue,+1 (516) 671-3223
-73.9512532,40.782886997545205,Chinatown Restaurant,chinese;japanese,3rd Avenue,+1 212-987-3500
-73.69035009999999,42.69662009754521,China Wok,chinese,Vandenburgh Avenue,518-272-2477
-76.2258471,43.139558097545205,China Wong,chinese,Oswego Road,+1-315-622-4567
-76.02988559999999,42.106399597545206,Chinese Buffet,chinese,East Main Street,(607) 748-2748
-73.9980357,40.7143302975452,Chinese Tuxedo,chinese,Doyers Street,6468959301
-73.8961975,40.7008167975452,Chiquita's,dominican,Myrtle Avenue,+1-718-386-0500
-73.94782190000001,40.7819228975452,Chochin,japanese,East 93rd Street,+1-212-426-1216
-73.9864698,40.75033049754521,Cho Dang Gol,korean,West 35th Street,12126958222
-73.91407029999999,40.701035897545204,Cholula Deli Corporation,mexican,Wyckoff Avenue,+1-718-417-0941
-73.9912282,40.7432568975452,Chop Shop II,asian,West 24th Street,+1 646 964 5672
-73.9834983,40.7238098975452,Chou Chou,morrocan,East 4th Street,(646) 869-1423
-73.2412449,40.715829797545204,Chowdar Bar,Seafood,Maple Avenue,(631) 665-9859
-73.98612790000001,40.7436388975452,Choza Tacqueria,mexican,Madison Avenue,+1-212-213-0708
-73.9861832,40.7436333975452,Chozo Taquería,mexican,Madison Avenue,+1-212-213-0708
-73.9849303,40.719127797545205,Cibao Restaurant,latin_american,Clinton Street,+1-212-228-0703
-73.769964,40.761877997545206,Cinco de Mayo,mexican,Bell Boulevard,7182240330
-73.94662059999999,40.780317597545206,Citi Thai,thai,1st Avenue,+1 212-722-7788
-73.96341070000001,40.67682649754521,Citrico,mexican,Washington Avenue,+1-347-955-4519
-73.9747614,40.79107059754521,City Diner,diner,Broadway,+1-212-877-2720
-73.88573459999999,40.8573556975452,Clinton Hall,burger,East 189th Street,+1-718-220-6400
-73.9847324,40.750048197545205,Clinton Hall 36,new_american,West 36th Street ,+1-212-695-0036
-73.9980862,40.757196797545205,Clyde Frazier's Wine & Dine,american,10th Avenue,+1-212-842-1110
-74.0036755,40.7429413975452,CoBa,vietnamese,9th Avenue,212-414-2700
-74.0012052,40.687821197545205,Cobble Hook,chicken,Columbia Street,+1 718 797-4120
-74.47524820000001,42.68213879754521,Cobleskill Diner,american;breakfast;coffee_shop;diner;pancake,Granite Drive,5182347111
-73.9959215,40.7266858975452,Coco & Cru,australian;burger;sandwich,Broadway,+1-212-614-3170
-73.8988203,40.709880397545206,Coco Lin's Restaurant,chinese,Fresh Pond Road,+1-718-417-5897
-73.9951145,40.720813097545204,Cocoron,japanese,Kenmare Street,+12129660800
-73.9958386,40.690816397545206,Colonie,american,Atlantic Avenue,+1 (718) 855-7500
-76.49866440000001,42.4370559975452,Coltivare,chicken;vegan;burger;grill;seafood;fish;breakfast;american;vegetarian;fine_dining;local;coffee_shop,South Cayuga Street,607.882.2333
-73.98476190000001,40.67127219754521,Columbia in Park Slope,colombian,5th Avenue,+1 718 369 2020
-73.9657478,40.8059410975452,Community Food & Juice,american,Broadway,+1 212 665 2800
-73.9903472,40.718715597545206,Congee Village,chinese,Allen Street,2129411818
-73.98917370000001,40.719915797545205,Contra,american,Orchard Street,(212) 466-4633
-73.928987,40.75636939754521,Copacabana,brazilian,36th Avenue,+1 718 545-3685
-73.9886581,40.719737097545206,Copper Throat,thai,Ludlow Street,+1-917-261-7891
-73.8950499,40.700911397545205,Corato II Pizza,pizza,Myrtle Avenue,+1-718-381-5656
-73.9931722,40.735049997545204,Corkbuzz,american,East 13th Street,+1 646 873 6071
-77.060974,42.1506920975452,Corning Class,chinese,Bridge Street,+1 607 936 0570
-73.9883884,40.7395503975452,Cosme,mexican,East 21st Street,+1-212-913-9659
-73.9577,40.82178979754521,Covo Trattoria Pizzeria,italian,West 135th Street,(212) 234-9573
-74.00053390000001,40.7082323975452,Cowgirl Seahorse,southwestern;_american,Front Street,+12126087873
-73.90782800000001,40.70007609754521,Coyote Bohemio,coffee;mexican,Myrtle Avenue,+1-718-386-8616
-75.2273301,43.1013624975452,Craylee's,breakfast;lunch;diner;sandwiches,Bleecker Street,+1-315-507-4713
-74.0006325,40.729594297545205,Creperie,crepe,MacDougal Street,212-253-6705
-76.49318690000001,42.539155197545206,Crossroads Bar and Grill,american,North Triphammer Road,(607) 533-7803
-73.70312390000001,40.6369640975452,Cucina di Vargas,italian,Franklin Avenue,+1-516-596-7260
-73.9236094,40.740063297545206,Curry Point,indian,Greenpoint Avenue,1.718.786.9500
-75.0943046,42.454915097545204,Dairy Queen,ice_cream,Chestnut Street,+1 607 432 8142
-73.99876429999999,40.745607297545206,Dalas BBQ,barbecue,8th Avenue,+1-212.462.0001
-73.96003320000001,40.77011679754521,Dallas BBQ,barbecue,3rd Avenue,+1 212-772-9393
-73.9404606,40.839582197545205,Dallas BBQ,barbecue,Broadway,+1-212-568-3700
-74.0048891,40.718503297545205,Da Mikele,italian,Church Street,+1-212-925-8800
-73.96757109999999,40.7667776975452,Daniel,french,East 65th street,+1-212-288-0033
-73.9880841,40.75927149754521,Daniela Trattoria,italian,8th Avenue,+1-212-869-3585
-73.8305368,40.708938497545205,Dani's House of Pizza,pizza,Lefferts Boulevard,718 846 2849
-73.7534103,41.348495097545204,Dante's Trattoria,italian,United States Route 6,+1-845-621-9654
-73.6906797,42.7232534975452,De Fazio's Pizzeria,pizza,4th Street,+1-518-271-1111
-73.94439659999999,40.787625397545206,Delicious Chinese Food Inc,chinese,2nd Avenue,+1-212-996-6931
-73.89676379999999,40.700371497545206,Delicious Wok,chinese,Summerfield Street,(718) 366-8882
-73.8966313,40.7062749975452,Delight Diner and Donuts,american;burger;salad;wrap;soup;donut;sandwich,Fresh Pond Road,+1-718-628-4708
-73.94885079999999,40.781513397545204,Delizia 92,italian,2nd Avenue,+1 212-996-3720
-73.9899817,40.752520997545204,Delmonico's Kitchen,steak,West 36th Street,+1-212-695-5220
-74.0075595,40.7434562975452,Del Posto,italian,10th Avenue,+1-212-497-8090
-73.97565870000001,40.686631897545205,Deniz,turkish;brunch,Fulton Street,+1-718-852-6503
-73.9217886,40.70571129754521,Desi Grill,indian,Wyckoff Avenue,+1-718-381-9777
-73.79207790000001,40.710884797545205,DhanShiri,chinese;indian,Hillside Avenue,+1-718-725-0001
-73.9614948,40.625047097545206,Di Fara Pizza,pizza,Avenue J,+1 718 258-1367
-73.9882554,40.7407968975452,Dig Inn Seasonal Market,american,East 23rd Street,+1-212-253-6174
-74.0024036,40.7446425975452,Dil e Punjab Deli,indian,9th Avenue,+1 212-647-9428
-73.9915292,40.714959197545205,Dimes,american,Canal Street,+1-212-925-1300
-73.9655977,40.7106766975452,Diner,american,Broadway,+1-718-486-3077
-76.15467790000001,43.0525611975452,Dinosaur BBQ,american,West Willow Street,315 476 4937
-73.9608188,40.818144997545204,Dinosaur BBQ,barbecue,West 125th Street,+1 212 694-1777
-77.0520185,42.14292069754521,Dippity Do Dahs,ice_cream,East Market Street,607-542-9416
-74.0063291,40.71889689754521,Distilled,american;coffee,West Broadway,+1-646-809-9490
-73.9589895,40.718388297545204,Diviera Drive,italian,Berry Street,+1 347 987 4302
-74.00907959999999,40.708996297545205,Diwanekhaas,indian,Nassau Street,+1 212-571-7676
-73.9144979,40.7012212975452,D' Montazo,spanish;coffee;burger;chicken;sandwich,Wyckoff Avenue,+1-718-497-3978
-74.135705,40.5611785975452,Domenico’s Pizzeria,pizza,Amboy Road,+1-718-351-2100
-73.8889188,40.8542838975452,Dominick's,italian,Arthur Avenue,+1 718 733-2807
-74.620526,42.147500797545206,Donatello's Pizza,pizza;italian,State Highway 28,+1-845-586-2552
-73.9755303,40.6810993975452,Don Chingon,mexican,Flatbush Avenue,+1 718 576 3521
-73.676641,40.658785597545204,Don Giovanni Pizzeria,pizza,Merrick Road,(516) 593-1409
-73.9523756,40.775692197545204,Donguri,japanese,East 83rd Street,+1-212-737-5656
-73.952601,40.776398097545204,Dorrian's Red Hand,american,2nd Avenue,+1-212-772-6660
-76.0661135,43.035366397545204,Dosa Grill,indian,East Genesee Street,315 445 5555
-73.8167712,40.752528897545204,Dosa Hutt,indian,Bowne Street,+1-718-961-6228
-73.9704163,40.75587269754521,Dos Caminos,mexican,3rd Avenue,+12123365400
-73.9846255,40.742267997545206,Dos Caminos,mexican,Park Avenue South,212.294.1000
-73.999973,40.7266786975452,Dos Caminos,mexican,West Broadway,+1-212-277-4300
-73.8938111,40.7007006975452,Double,chinese,Myrtle Avenue,+1-718-326-3661
-74.0003816,40.6131093975452,Double Delight,chinese,17th Avenue,+1-718-331-5880
-73.98972020000001,40.7261117975452,Double Zero,pizza,2nd Avenue,+1-212-777-1608
-73.946623,40.7892557975452,Dreamer’s Pizza,pizza,3rd Avenue,+1 212-987-5414
-73.9130974,40.7134435975452,Drunken Fish Sushi and Lounge,sushi,Metropolitan Avenue,+1-718-821-1283
-73.9207083,40.705380397545206,D'Santos,mexican,Wyckoff Avenue,+1-347-378-2740
-73.9904706,40.600127797545206,Duck Wong Restaurant,chinese,86th Street,+1-718-483-9687
-77.62876429999999,43.1033774975452,Duff's Famous Wings,wings,West Henrietta Road,+1 (585) 491-7272
-73.9768932,40.7478305975452,Duke's,southern,3rd Avenue,+1 212-949-5400
-73.98689,40.701627597545205,Dumbo Kitchen,coffee; sandwich,Jay Street,+1-718-797-1695
-73.91216159999999,40.713421497545205,East Coast Burger,american;burger,Metropolitan Avenue,+1-718-451-8020
-73.92940970000001,40.756285397545206,East Garden,chinese,36th Avenue,+1-718-729-1188
-73.93338790000001,40.61918579754521,East Garden,Chinese;Thai,Flatbush Avenue,7182523822
-73.84357609999999,40.952407697545205,East Harbor Seafood Restaurant,seafood,Central Park Ave,+1-914-961-0100
-73.9898967,40.741838097545205,Eataly,italian,5th Avenue,+1 (212) 229-2560
-73.8972642,40.707560197545206,E-Chiban,sushi,Fresh Pond Road,+1-718-386-8333
-73.9788478,40.723890397545205,Edi and the Wolf,austrian,Avenue C,2125981040
-73.95976259999999,40.7704393975452,EJ's Luncheonette,diner,3rd Avenue,+1 212-472-0600
-73.93704509999999,42.78917719754521,E.K.'s Cibo,italian,Chrisler Avenue,(518) 952-4210
-73.9052543,40.71299479754521,El Alto,mexican,Metropolitan Avenue,+1-718-456-1044
-73.88153309999998,40.7561160975452,El Anzuelo Fino,peruvian;seafood,Northern Boulevard,+1-718-846-0909
-73.9811182,40.7291288975452,El Camion Cantina,mexican,Avenue A,+1-212-533-5436
-73.9932341,40.7336295975452,El Cantinero,mexican,University Place,+1 212-255-9378
-73.9232481,40.6994511975452,El Castillo,mexican,Wilson Avenue,+1-917-460-0271
-73.9430902,40.7940663975452,El Chevere Cuchifritos,caribbean,3rd Avenue,+1 212-427-3952
-73.9871904,40.7415982975452,Eleven Madison Park,french;american,Madison Avenue,+1 212.889.0905
-73.9089122,40.7018784975452,El Fogon Costeno,latin_american,Palmetto Street,(718) 456-2555
-73.8680321,40.742016197545205,El Guachito,Argentinian,Corona Avenue,+1-718-271-8198
-73.9254602,40.700777697545206,El Kucho,mexican,Wilson Avenue,+1-917-966-5124
-74.0041433,40.705841897545206,El Luchador Taqueria,mexican,South Street,+1 646-398-7499
-73.8836169,40.755593297545204,El Maguey,mexican,Northern Boulevard,+1-929-522-0562
-73.87964140000001,40.828398297545206,El Molcajete,mexican,Westchester Avenue,+1-917-688-1433
-73.9077575,40.700074097545205,El Montañero,coffee;colombian,Myrtle Avenue,+1-718-366-0400
-73.91556259999999,40.8694438975452,El Nuevo Sabor,dominican,10th Avenue,+1-212-567-1515
-73.9823074,40.658429397545206,Elora's,mexican,Prospect Park West,+1-718-788-6190
-73.94529849999999,40.7952819975452,El Paso,mexican,East 110th Street,+1-212-831-9831
-73.9527035,40.787368697545205,El Paso Taqueria,mexican,East 97th Street,+1 212-996-1739
-73.9096051,40.69603519754521,El Pilon,latin_american;coffee,Cornelia Street,+1-718-628-4241
-73.8783303,40.756134497545204,El Pollo Inka,peruvian,Northern Boulevard,+1-718-505-2822
-73.97684609999999,40.7479138975452,El Rio Grande,mexican,East 38th Street,+1 212-867-0922
-73.91049740000001,40.7043021975452,El Sabor del Austro,latin_american,Seneca Avenue,+1-718-417-6100
-73.99165620000001,40.754075197545205,El Sabroso,latin_american;ecuadorian,West 37th Street,+1-212-284-1118
-73.9459088,40.80108589754521,El San Juan Restaurant,seafood;soul,5th Avenue,+1-646-373-3690
-73.9246127,40.700221197545204,El Sol De Cholula,mexican,Wilson Avenue,+1-917-340-3901
-73.9857877,40.6691290975452,El Viejo Yayo 2,latin_american,9th Street,+1-718-965-7299
-77.66938809999999,42.8212159975452,Ember Woodfire Grill,regional,Livonia Station,(585) 346-0222
-73.9068011,40.6900924975452,Empire,chinese; mexican; burrito; enchilada; tex-mex,Wilson Avenue,+1-718-455-2161
-76.07341159999999,43.055544297545204,Empire Buffet,chinese,Erie Boulevard East,315 251 1888
-73.94639140000001,40.8004366975452,Empire Corner 2,chinese,5th Avenue,+1 212-410-5756
-74.0042834,40.7472053975452,Empire Diner,diner,10th Avenue,+1 212-335-2277
-73.925038,40.672161597545205,Empire Kitchen,chinese,Park Place,+1-718-953-3532
-73.9146459,40.69902419754521,Empire Slice Pizza,pizza,Irving Avenue,+1-347-404-7945
-73.9695337,40.797270297545204,Empire Szechuan,chinese,Broadway,+1 212 663 6004
-73.97989079999999,40.7565246975452,Emporium Brasil Restaurant,brazilian,West 46th Street,+1 (212) 764-4646
-74.077292,40.641996897545205,Enoteca Maria,italian,Hyatt Street,+1 718 447-2777
-73.92130920000001,40.763151797545206,Enthaice,thai,31st Avenue,(718) 932-1111
-73.8888678,40.85439139754521,Enzo's,italian,Arthur Avenue,+1 718 733-4455
-73.9113797,40.7048250975452,Estrella Del Mar,seafood;latin_american,Seneca Avenue,+1-718-456-7496
-73.8966302,40.7054099975452,Etno,sandwich,Fresh Pond Road,+1-917-909-1099
-73.94386740000002,40.6838511975452,Eugene & Co.,american,Tompkins Avenue,+1-718-443-2223
-77.0510984,42.142930797545205,Evergreen Express,chinese,East Market Street,+1 607 932 1017
-73.9069318,40.696990797545205,Everyday,chinese,Wyckoff Avenue,+1-718-381-8899
-73.8988753,40.7003912975452,Fajitas Sunrise,mexican,Myrtle Avenue,(718) 418-0967
-73.96007970000001,40.655841697545206,Family Pizza,pizza,Flatbush Avenue,(718) 462-0639
-73.70973790000001,40.657813997545205,Family Pizzaria Restaurant,pizza,Mill Road,+1-516-374-1862
-73.99936729999999,40.711924497545205,Famous Calabria Pizza,pizza,Saint James Place,+12122330009
-74.00141020000001,40.746028697545206,Famous Original Ray's Pizza,pizza,9th Avenue,+1-212-243-1129
-73.9673426,40.763759197545205,Farinella,italian,Lexington Avenue,+1 212-256-1872
-73.9229012,40.70744839754521,Faro,italian,Jefferson Street,+1-718-381-8201
-73.975323,40.674897097545205,Faros,greek,7th Avenue,+1-718-623-2767
-73.91037320000001,40.6944277975452,Fazio's,pizza,Knickerbocker Avenue,+1-347-529-3222
-73.9844183,40.725083997545205,Feima,chinese,Avenue A,+1-212-673-3300
-73.9948732,40.713826397545205,Fei Tenc Seafood,seafood,Market Street,(212) 274-8659
-74.00185479999999,40.6841850975452,Ferdinando's Focacceria,italian,Union Street,+1 718-855-1545
-73.9505144,42.7933076975452,Ferrari's Ristorante,italian,Congress Street,518-382-8865
-77.05105909999999,42.142701597545205,Fiesta Brava Mexican Restaurant,mexican,East Market Street,607-936-4400
-74.00695870000001,40.74058569754521,Fig & Olive,fine_dining,West 13th Street,+1-212-924-1200
-74.0083252,40.70533069754521,Fino Ristorante Italiano,italian,Beaver Street,+12128251924
-74.0000832,40.728764997545206,Fiore's Pizza,pizza,Bleecker Street,+1-212-982-8663
-74.0305288,40.6179668975452,First Oasis Restaurant,middle_eastern,4th Avenue,+1-718-238-4505
-73.94755500000001,40.783257297545205,Five Luck,chinese,2nd Avenue,+1 212-831-4477;+1 212-722-4468
-73.99115379999999,40.7600931975452,Five Napkin Burger,burger,9th Avenue,+1 212 757 2277
-73.8756873,41.994737797545206,Flatiron,american,South Broadway,(845) 758-8260
-73.9883122,40.7408235975452,Flats Fix,mexican,East 23rd Street,+1-212-353-2400
-73.9564615,40.7763905975452,Flex Mussels,seafood,East 82nd Street,212-717-7772
-74.0065506,40.7340610975452,Flip Sigi,filipino; burrito; tacos; sandwich,Hudson Street,+1-833-354-7744
-73.9845425,40.663585897545204,Fonda,mexican,7th Avenue,+1 718 369-3144
-73.9940837,40.7117283975452,Food King,chinese,Market Street,(212) 233-2433
-73.9490739,40.711499597545206,Forcella,italian,Lorimer Street,(718) 388-8820
-73.6158993,40.8740532975452,Forest Ave Grill,american,Forest Avenue,(516) 277 2360
-73.9015916,40.7043325975452,Forest Steakhouse Bar,steak,Forest Avenue,+1-347-608-5313
-73.9914009,40.7145624975452,Forgtmenot,mediterranean,Division Street,(646) 707-3195
-73.93233029999999,40.703138597545205,Forrest Point,american,Flushing Avenue,+1-718-366-2742
-74.0313613,40.615972297545206,Fort Hamilton Diner,diner,4th Avenue,+1-718-238-5151
-73.98070229999999,40.775134097545205,Francesco's Pizza,pizza,Columbus Circle,+1-212-721-0066
-73.46151390000001,40.82891939754521,Frank's Gourmet Pizza & Restaurant,italian,Woodbury Road,+1 516 692 5626
-74.06272009999999,41.52254469754521,Frank’s Pizza,italian_pizza,South Plank Road,(845) 562-1500
-73.93300390000002,40.768489697545206,Fresco's Cantina,mexican,31st Avenue,+1-347-808-7338
-73.89648829999999,40.70520719754521,Fresh Pond Mexican Restaurant and Corner Coffee Shop,mexican;coffee;breakfast;american,Fresh Pond Road,(718) 366-1595
-73.83448670000001,40.707043797545204,Fresh Tortillas,mexican,Metropolitan Avenue,+17188507766
-73.9994973,40.727703897545204,Freud NYC,austrian,Laguardia Place,+1-212-777-0327
-73.9984356,40.755261497545206,Friedman`s,american,10th Avenue,+12122681100
-74.0088819,40.709187197545205,Friendly Gourmet Pizza,italian,Nassau Street,+1 212-791-1800
-73.9894328,40.70244619754521,Front Street Pizza,pizza,Front Street,7188753700
-73.9536306,40.6827452975452,Fuji Sushi Bedford,japanese;thai,Bedford Avenue,+1 347 985 1197
-76.11848020000001,43.08125299754521,Fusion Diner & Cakery,coffee_shop;diner;french;spanish;international;italian_pizza;mexican;regional;crepe;curry;breakfast;deli;friture;burger;ice_cream;pasta;hotdog;pizza;chicken;sausage;sandwich;noodles;cake;pancake;savory_pancakes;tea;tapas;local;bagel,Court Street,3152185547
-73.98332590000001,40.688904197545206,Ganso,ramen,Bond Street,+1 (718) 403-0900
-73.9878356,40.7478213975452,Gaonnuri,korean,Broadway,+1 212-971-9045
-73.9074043,40.703338697545206,Garam Masala,indian,Palmetto Street,+1-347-799-2071
-74.11848990000001,42.04126269754521,Garden Cafe,vegetarian;vegan;juice,Old Forge Road,+1 845 679 3600
-73.97635109999999,40.7810633975452,Gari Columbus,japanese,Columbus Avenue,+1-212-362-4816
-73.9021872,40.704997797545204,Garlic to the Chicken,korean,Forest Avenue,+1-347-689-2670
-73.9518105,40.8240742975452,Geisha Sushi,sushi;japanese,Broadway,(212) 862-7800
-73.97566640000001,40.745407797545205,Gemini Diner,diner,2nd Avenue,+1 212-532-2143
-73.9635646,40.677623397545204,Gen,japanese,Washington Avenue,+1-718-398-3550
-73.9718511,40.7916482975452,Gennaro,italian,Amsterdam Avenue,+1 212-665-5348
-73.9369872,40.850363697545205,George's Pizza,pizza,West 181st Street,+1-212-568-6891
-73.9815825,40.679140997545204,Ghenet,ethiopian,Douglass Street,+1 718 230 4475
-77.600285,43.209433997545204,Gigi's Italian Kitchen & Catering,italian,Hudson Avenue,+1 585 544 5440
-73.8132999,40.675695997545205,Gina's Pizza Pasta Cafe & Latin Cuisine,pizza,Rockaway Boulevard,718-848-3300
-73.82982,40.851855797545205,Giovanni,italian,Westchester Avenue,+1-718-892-4340
-76.42181629999999,42.713307697545204,Giuseppe's Pizzeria,pizza,Main Street,315 497 2222
-73.9905912,40.660401697545204,Giuseppina’s,pizza,6th Avenue,+1-718-499-5052
-73.94597759999999,40.7818756975452,G & J's Pizzeria,pizza,1st Avenue,+1 212-534-3173
-74.0265752,40.634016497545204,Glow Thai,thai,3rd Avenue,(718) 748-1920
-73.99919150000001,40.728018297545205,GMT Tavern,british;coffee,Bleecker Street,+1-646-863-3776
-73.957853,40.815484997545205,Go! Go! Curry!,japanese,West 125th Street,+1-646-833-7143
-73.9906058,40.754447197545204,Go!Go! Curry,japanese,West 38th Street,+1 212 730-5555
-73.78279470000001,40.712736897545206,Golden Chicken Restaurant,chicken,Hillside Avenue,718-206-4669;718-206-4667
-73.9844516,40.692403797545204,GOLDEN FRIED DUMPLING,chinese,Duffield Street,7185522838
-73.9080513,40.695574797545206,Golden Thai,thai,Irving Avenue,(917) 966-1203
-73.9970903,40.7136218975452,Golden Unicorn,chinese,East Broadway,+1 212 941 0911
-73.9116484,40.69516759754521,Good Chinese,chinese,Knickerbocker Avenue,+1-718-366-7829
-76.09561629999999,43.069536897545206,Goodie's Mediterranean Grill & Cuisine,mediterranean,James Street,+1-315-433-1003
-73.8258352,40.7514791975452,Good Taste 666,chinese,Main Street,+1-718-886-3332
-73.94071679999999,40.7512912975452,Gordo's Cantina,mexican,Queens Plaza North,+1 646 828 6758
-73.8177281,40.765174097545206,Gossip House,korean,Northern Boulevard,+1 718 358-6262
-74.0004381,40.7357734975452,Gottino Enoteca Salumeria,italian,Greenwich Avenue,+1 212-633-2590
-74.00048659999999,40.731332697545206,Go Zen,asian; burger; soup; ramen,West 4th Street,+1-212-260-7130
-73.8807907,40.7020767975452,Grace Pizzeria,pizza;italian,Myrtle Avenue,+1-718-417-6018
-73.9516051,40.7734398975452,Gracie Mews Diner,diner,1st Avenue,+1 646-394-9490
-73.95163149999999,40.7776431975452,Gracies on 2nd Diner,diner,East 86th Street,+1 212-879-9425
-73.8291153,40.75967339754521,Grand,tea;wine;small_plates;dessert,Main Street,718-321-8258
-73.9262778,40.684711097545204,Grandchamps,haitian,Patchen Avenue,718-484-4880
-74.000974,40.7473500975452,Grand Sichuan,chinese,9th Avenue ,+1 212-620-5200
-73.79081,42.67880619754521,Grappa'72 Ristorante,italian,Central Avenue,518-482-7200
-73.45692729999999,40.871126497545205,Grasso's,american,West Main Street,+1 631 367 6060
-73.93850259999999,40.8508316975452,Great Wall Chinese Restaurant,chinese,West 181st Street,(212) 795-9373
-73.9074378,40.887522997545204,Greek Express,greek,Riverdale Avenue,+1 718 601-4976
-73.75866629999999,40.733551297545205,Greek Family Kitchen,Greek,Union Turnpike,7184701700
-76.06517070000001,42.095948697545204,Greek Key,greek,Nanticoke Avenue,(607) 239-5667
-73.92498420000001,40.7689855975452,Green Apple Delight,juice;frozen_yogurt,Crescent Street,+1 (718) 777-7731
-73.95470329999999,40.78095369754521,Green Cafe,diner,Lexington Avenue,+1-212-289-9100
-73.953936,40.77101189754521,Green Kitchen Restaurant,diner,1st Avenue,+1 212-988-4163
-73.9057887,40.70872219754521,Grimaldi's Bakery,bakery;dessert;pastry;coffee,Menahan Street,(718) 497-1425
-73.8532661,40.853030997545204,G&R Italian Deli,deli;italian,Williamsbridge Road,718931450
-73.93087109999999,40.8535476975452,Grito,mexican,Saint Nicholas Avenue,2127950700
-78.6972637,43.01846549754521,Grovers Bar & Grill,burger,Transit Road,716-636-1803 ‎
-73.9165505,40.869651397545205,Guacamole Taqueria,mexican,Broadway,+1-646-964-4481
-73.9108564,40.704535897545206,Guadalajara De Dia 2,mexican;burrito;tacos;nachos;burger,Seneca Avenue,+1-718-456-3698
-73.9350057,40.796852597545204,Guajillo,mexican,1st Avenue,+1 646-912-9971
-73.95670190000001,40.675225997545205,Gueros,mexican,Prospect Place,+1 718 230 4941
-73.6397131,40.643952197545204,Gyro Bar,greek,Long Beach Road,+1-516-766-9016
-73.86945250000001,40.7242179975452,Gyro Grill,Mediterranean;Greek,Woodhaven Boulevard,+1-718-779-0900
-73.89711070000001,40.7072478975452,Gyro World,gyro;burger;pizza,Fresh Pond Road,+1-718-428-3800
-73.82994190000001,40.75810169754521,Gyu-Kaku Japanese BBQ,japanese;bbq,Main Street,(347) 542-3653
-73.9829869,40.669398197545206,Haab Taqueria,mexican,6th Avenue,+1-718-369-0849
-73.98113559999999,40.675173697545205,Haenyeo,korean,5th Avenue,+1-347-294-4159
-73.996628,40.612959397545204,Halal Xpress Asian Fusion,fusion;asian;halal,18th Avenue,+1-718-416-9090
-73.9912505,40.737642797545206,Hale and Hearty Soups,soup,East 17th Street,+1 212 675 6611
-72.1409993,40.9741765975452,Hampton Chutney Co,indian,Amagansett Square,6312673131
-73.8812247,41.982021597545206,Hana Sushi,sushi,South Broadway,(845) 758-4333
-73.9941732,40.6149723975452,Hand Pull Noodle & Dumplings House,chinese,18th Avenue,+1-718-232-6191
-73.9906047,40.7443525975452,Hanjan,korean,West 26th Street,2122067226
-73.9790008,40.6702295975452,Hanki,korean,7th Avenue,+1 718 768 3555
-73.82649,40.760118397545206,Hao Shi Lai,tea;milk_tea,Union Street,(929) 335-7777
-73.9235255,40.699291597545205,Happy Garden,chinese,Wilson Avenue,+1-718-602-3800
-73.99549,40.713747997545205,Happy Garden Palace,chinese,East Broadway,(212) 925-9888
-73.4618935,40.86623929754521,Harbor Mist Restaurant,seafood,Harbor Road,+1 631 659 3888
-73.9773072,40.784191697545204,Haru Sushi,japanese,Amsterdam Avenue,+1-212-579-5655
-73.9860285,40.7329787975452,Hawkers,asian,East 14th Street,(212) 982-1688
-73.6193202,40.874865797545205,Hazuki Japanese Fusion,japanese,Forest Avenue,+1 (516) 609-2828
-73.9518046,40.777462897545206,Heidelberg Restaurant,german,2nd Avenue,+1 212-628-2332
-73.99430190000001,40.75665949754521,Hell's Kitchen,mediterranean,9th Avenue,2129474208
-73.9920753,40.699677697545205,Henry's End,american,Henry Street,+1 718 834-1776
-73.9681752,40.75617179754521,Hide-Chan Ramen,japanese,East 52nd Street,+1 212-813-1800
-73.97711109999999,40.7434898975452,Hill and Bay,american;breakfast,2nd Avenue,+1-212-245-5554
-73.96197590000001,40.6827646975452,Hill Cafe,french;american;brunch,Putnam Ave,718-230-3471
-73.99043259999999,40.744273697545204,Hill Country Barbecue Market,barbecue,West 26th Street,(212) 255-4544
-73.99050809999999,40.719573397545204,Hill & Dale,american,Allen Street,(212) 420-1115
-73.98236899999999,40.665719597545205,Hillside,american,7th Avenue,+1-718-499-0060
-73.70941459999999,40.73724649754521,Hillside Dosa Hut,indian;south_indian,Hillside Avenue,+1-718-414-4780
-77.79169909999999,43.2885613975452,Hilton Family Diner,diner;american;coffee_shop;breakfast,Hovey Street,15853924700
-77.7917983,43.289079797545206,Hilton Family Restaurant,american;breakfast;coffee_shop;diner,Hovey Street,15853924700
-73.4599012,40.8287322975452,Hoi Won Chinese Take Out,chinese,Woodbury Road,+1 516 367 8200
-73.99562309999999,40.7387142975452,Hollywood Diner,diner,6th Avenue,+1 212-691-8465
-77.0566329,42.1437032975452,Holmes' Plate 54,burger,West Market Street,+1 607 377 5500
-73.9170974,40.68321019754521,Ho May Chinese Restaurant,chinese,Decatur Street,+1-718-443-4282
-73.9803279,40.743088697545204,Home Base,american;asian;brunch,3rd Avenue,+1-212-481-1712
-74.0161261,40.67492639754521,Hometown Bar-B-Que,bbq,Van Brunt Street,+1 347 294 4644
-73.90498670000001,40.710937797545206,Hong Kong Restaurant,chinese;cantonese;szechuan,Forest Avenue,+1-718-628-0888
-73.67614559999998,42.722306597545206,Hoosick Pizza,pizza,Congress Street,518-272-5555
-73.98905409999999,40.718416497545206,Hotel Chantelle,american,Ludlow Street,+1-212-254-9100
-73.9854277,40.7323792975452,Hotel Tortuga,mexican; burrito; enchilada; nachos,East 14th Street,+1-212-228-1884
-73.9391666,40.826923097545205,Hot Pot Under De Tree,jamaican,Frederick Douglas Boulevard,+1-212-234-3505
-73.902251,40.694190897545205,Houdini Kitchen Laboratory,pizza;coffee;pasta,Decatur Street,+1-718-456-3770
-73.8951913,40.7030233975452,House Of Gyro & Shawarma,mediterranean; coffee; gyro; sandwich,Fresh Pond Road,+1-347-844-9183
-73.8862622,40.85762789754521,Howl at the Moon,pasta; nachos; wings,East 189th Street,+1-718-561-7694
-73.9838286,40.72589949754521,Hub Thai,thai,Avenue A,+1-212-533-2928
-73.9686379,40.7572639975452,Hudson Malone,american,East 53rd Street,+1 212 355 6607
-73.9381473,40.8507172975452,Hudson View Restaurant,american,West 181st Street,(212) 781-0303
-73.98220740000001,40.665630297545206,Hugo & Sons Pizza,pizza,11th Street,+1-718-499-0020
-73.9781767,40.6753899975452,Hunan Delight,chinese,Union Street,+1-718-789-1400
-73.90496379999999,40.7013635975452,Hungry Burrito,mexican;salad;soup;chicken,Seneca Avenue,+1-718-885-8080
-73.9856982,40.749902997545206,Hyo Dong Gak,korean-chinese,West 35th Street,+1 212 695-7167
-73.9883593,40.734825797545206,Ichabod's,american;burger,Irving Place,+1-212-777-5102
-73.9617582,40.79895299754521,Ichie,japanese,West 106th Street,+1-212-865-4888
-73.98482259999999,40.746764797545204,IchiUmi,japanese,East 32nd Street,+1 212-725-1333
-73.98555920000001,40.7328080975452,IHOP,american,East 14th Street,(212) 388-1499
-73.98378690000001,40.6890344975452,IHOP,diner,Livingston Street,+1-718-222-4467
-74.1483407,40.6244215975452,IHOP,pancake,Richmond Avenue,1-718-494-4467
-73.9503164,40.7794982975452,Il Carino,italian,2nd Avenue,+1 646-882-0487
-73.94553690000001,40.7475726975452,Il Falco,italian,44th Drive,+1-718-707-0009
-73.98402850000001,40.7224082975452,Il Posto Accantoa,italian,East 2nd Street,+1-212-228-3562
-73.9633365,40.798296197545206,Imperial Pizza & Restaurant,pizza,Columbus Avenue,+1 212-664-3222
-73.98967540000001,40.7556515975452,Inakaya,japanese,West 40th Street,1 (212) 354-2195
-73.91823240000001,40.703485797545206,Inca Chicken,chicken,Wyckoff Avenue,+1-718-366-3763
-73.9894745,40.743861697545206,INDAY,indian,Broadway,+1 917 521 5012
-73.9498159,40.678760397545204,India House,indian,Nostrand Avenue,+1 718 857 7011
-73.918421,40.87279929754521,Indian Road Cafe,american,West 218th Street,+1-212-942-7451
-73.99127309999999,40.7556009975452,indikitch,indian,8th Avenue,+1-646-490-0902
-73.90629270000001,40.6946223975452,Industry 1332,tapas;coffee,Halsey Street,+1-718-484-8338
-73.969718,40.7970037975452,Indus Valley,indian,Broadway,+1 212 222 9222
-73.9825059,40.67948909754521,Insa,korean,Douglass Street,+1 718 855 2620
-73.94665570000001,40.7802825975452,International Wings Factory,chicken,1st Avenue,+1 212-348-2627
-73.990263,40.7309292975452,Ippudo NY,noodles;japanese,4th Avenue,+1 212 388 0088
-73.9832198,40.7601423975452,Iroha,japanese,West 49th Street New York NY,1-212-398-9094
-73.9510918,40.583566897545204,Istanbul,turkish,Emmons Avenue,+17183683587
-73.6446067,40.702065997545205,Istanbul Kebab House,turkish,Hempstead Avenue,+1-516-280-5858
-73.9096562,40.6999022975452,I Sushi,sushi,Woodbine Street,+1-718-366-3686
-76.4954828,42.4399782975452,Ithaca Ale House,bar&grill,North Aurora Street,(607) 256-7977
-73.9231815,40.6994105975452,Itzel's Taqueria Deli,mexican; taco; burrito; quesadilla,Wilson Avenue,+1-718-417-1015
-73.9844418,40.720541997545205,Ivan Ramen,ramen; japanese,Clinton Street,+1-646-678-3859
-73.9894469,40.74408069754521,Izakaya NoMad,japanese,West 26th Street,+1 212-213-6258
-73.7732689,40.7688000975452,Jackson Hole,burger,Bell Boulevard,(718) 281-0330
-73.9975189,40.7221177975452,Jack's Wife Freda,mediterranean,Lafayette Street,+1-212-510-8550
-73.9429665,40.8217176975452,Jacob Restaurant,soul,Frederick Douglas Boulevard,+1-212-866-3663
-73.9439964,40.810260797545205,Jacob Restaurant,soul,Lenox Avenue,+1-212-866-3663
-73.9095539,40.70001049754521,Jade Asian Express,sushi,Woodbine Street,+1-718-381-8878
-73.90739930000001,40.7001151975452,Jade Palace,chinese,Myrtle Avenue,+1-718-381-8980
-73.90799709999999,40.702833397545206,Jade Seneca,chinese,Seneca Avenue,+1-718-628-8282
-73.99107070000001,40.7209836975452,Jadis Wine Bar,french,Rivington Street,+1-212-254-1675
-73.98410940000001,40.66410969754521,Jai Dee,thai,7th Avenue,+1 718 832 1544
-73.9903859,40.714283097545206,Jajaja Plantas Mexicanas,mexican,East Broadway,(646) 883-5453
-73.7607221,40.7203185975452,Jamaican Best Restaurant,jamaican,Hillside Avenue,+1-718-454-4321
-78.88895409999999,43.0607075975452,Jannelli's Pizzeria,pizza,Payne Avenue,716-525-1451
-73.9848775,40.66269599754521,Java,indonesian,7th Avenue,+1-718-832-4583
-77.69421070000001,42.559462597545206,Java Jungle,american,Main Street,(585) 335-3250
-73.9998424,40.7169470975452,Jaya,malasian;thai;chinese,Baxter Street,+1-212-219-3338
-73.8601891,40.731133897545206,JC Garden,chinese,63rd Road,17182753007
-75.8801107,43.970948897545206,Jean's Beans,fish_and_chips;doughnuts;fried_food,Eastern Boulevard,+1-315-788-7460
-73.7391176,40.6758581975452,Jerk Hut,jamaican;jerk,Merrick Boulevard,+1-718-712-5910
-73.78383249999999,42.862302797545205,Jersey Mike's Subs,sandwich,Southside Drive,+1 518 371 2828
-73.91074470000001,40.704776597545205,Jim's China King,chinese,Seneca Avenue,+1-718-418-1288
-77.0549329,42.1434327975452,Jim's Texas Hots,hot_dogs,West Market Street,607-936-1820
-73.9971443,40.7160558975452,Jing Fong,chinese,Elizabeth Street,+1 212 964-5256
-73.9770675,40.78538489754521,Jin Ramen,japanese,Amsterdam Avenue,+1-646-657-0755
-73.98029709999999,40.774530297545205,Joanne Trattoria,italian,West 68th Street,+1-212-721-0068
-73.98595390000001,40.7346745975452,Joe Junior,american;grill;seafood;diner,3rd Avenue,+1 212 473 5150
-73.9032378,40.707486497545204,Joe's Italian Restaurant,italian,Forest Avenue,+1-718-497-1300
-74.00206290000001,40.7305467975452,Joe's Pizza,pizza,Carmine Street,+1 212-366-1182
-73.90341409999999,40.7212554975452,Joe's Pizza,pizza,Flushing Avenue,+1-718-894-3661
-73.99779649999999,40.7147041975452,Joe's Shanghai,chinese,Pell Street,+1 212-233-8888
-73.89514799999999,40.726185597545204,Joey's Pizza,pizza,Grand Avenue,+1-718-779-5880
-73.7465212,40.6163220975452,John & Lupita's Latin American Food,latin_american,Doughty Boulevard,+1-516-239-2094
-73.9683125,40.759559497545204,Johnny Rockets,diner,3rd Avenue,+1 212-813-0003
-73.9924423,40.68359619754521,Jolie Cantina,french;mexican,Smith Street,+1-718-488-0777
-73.98693759999999,40.747523197545206,Jongro BBQ,korean,West 32nd Street,+1 212-473-2233
-73.9514397,40.743800697545204,Jora,peruvian,11th Street,+1-718-392-2033
-73.9076846,40.702993297545206,Jorge's,dominican; coffee,Seneca Avenue,+1-718-456-3900
-73.8275173,40.760380997545205,J R,chicken;Rice;fish;soup;vegetarian;Quick_bite,Roosevelt Avenue,718-886-0083
-74.0096569,40.7152244975452,JR Sushi,sushi,West Broadway,+1-212-233-8338
-73.9501801,40.7866636975452,Judy's Spanish Restaurant,dominican,Lexington Avenue,+1 212-831-0193
-73.9934832,40.702695897545205,Juliana's DUMBO,pizza,Old Fulton,(718) 596-6700
-73.90299949999999,40.70316729754521,Julia's Beer and Wine,american,Woodward Avenue,+1-917-909-1314
-78.66684479999999,42.508831797545206,Julie's Pizzeria and Restaurant,pizza;italian,East Main Street,(716) 592-2545
-73.9909146,40.7431207975452,Junoon,indian,West 24th Street,+1 (212) 490-2100
-73.9829953,40.731075497545206,Just for Fen,chinese,1st Avenue,+1 646-692-3433
-73.9520354,40.78181459754521,Kaia Wine Bar,south_african,3rd Avenue,+1 212-722-0490
-73.79336550000001,40.7701759975452,Kalamaki Gr,Greek,172nd Street,+1-718-939-1616
-73.9185073,40.68727239754521,Kalina Bar & Grill,caribbean,Broadway,+1-718-919-1111
-73.9714493,40.67613149754521,Kami,japanese;thai,Flatbush Avenue,+1 718 398 3888
-73.9987446,40.729331597545205,Karakatta,ramen,Thompson Streer,+1-917-261-6297
-73.7484353,42.762307097545204,Karavalli,indian,Johnson Road,518-785-7600
-73.86242159999999,41.16158329754521,Karma Lounge,latin_american,Main Street,+1-914-502-0360
-73.903131,40.746521197545206,Kathmandu Fusion Kitchen,Nepali,61st Street,+1-718-672-9500
-73.9829956,40.731693797545205,Kati,thai,East 14th Street,(212) 533-2046
-73.86758359999999,40.8987803975452,Katonah Pizza & Pasta,italian;pizza;pasta,Katonah Avenue,(718) 994-8337
-73.97753730000001,40.756439797545205,Katsuhama,japanese,East 47th Street,+1 212 758-5909
-73.98736140000001,40.7223450975452,Katz's Delicatessen,deli,East Houston Street,+1 212-254-2246
-73.9387283,40.8475475975452,Kazza Wine Bar,wine,West 177th Street,(646) 863-2447
-76.5122878,42.4418424975452,Kelly's Dock-Side Cafe,regional,Taughannock Boulevard,607-277-8709
-73.8917941,40.67792889754521,Kennedy's Fried Chicken,american,Fulton Street,(718) 235-1283
-73.8880885,40.7434041975452,Khao Nom,thai,Woodside Avenue,+1-929-208-0108
-73.9624896,40.712861497545205,Khao Sarn,thai,Bedford Avenue,+1 (718) 963-1238
-73.7163822,40.670071697545204,Kibo Teriyaki,asian;japanese,Merrick Road,+1-516-612-7888
-73.99190970000001,40.714531597545204,Kiki's,greek,Division Street,+1-646-882-7052
-73.97952790000001,40.677533397545204,Kiku,asian;sushi,5th Avenue,+1 718 638 3366
-76.0199663,43.033009197545205,King David's,greek,Towne Drive,315 637 0485
-73.95028,40.792814797545205,King Dragon,chinese,Madison Avenue,+1 212-369-6788
-73.9255323,40.7622254975452,King Of Falafel & Shawarma,middle_eastern,Broadway,+1 718 340 8068
-73.8988579,40.7099269975452,King Wah Restaurant,chinese,Fresh Pond Road,+1 (718) 418-5858
-73.93702890000002,40.85529979754521,Kismat Indian Restaurant,indian,Fort Washington Avenue,+1-212-795-8633
-73.973699,40.678558697545206,Ki Sushi,sushi,Flatbush Avenue,+1 718 230 1381
-73.9946313,40.6853328975452,Kitchen at Cobble Hill,american;brunch,Court Street,+1-347-689-4279
-73.9644493,40.6828345975452,Kitchen Grill,indian,Fulton Street,+1-718-789-7800
-77.61324549999999,43.1932900975452,Kithnos Seafood Market,seafood,Clinton Avenue North,(585) 342-4160
-73.9938981,40.681454697545206,Kittery,seafood,Smith Street,+1-718-643-3293
-73.9092337,40.700944097545204,K&K Super Buffett,chinese,Saint Nicholas Avenue,(718) 381-7111
-73.9170639,40.703116697545205,Klom Klorm,thai,Wyckoff Avenue,+1-718-489-9188
-73.93330870000001,40.7030761975452,Koda Restaurant & Lounge,american,Flushing Avenue,+1-347-223-4026
-73.99204820000001,40.7427924975452,Kofoo,korean-deli,West 23rd Street,+1 212 675 5277
-73.9738155,40.67936559754521,Kombit,haitian,Flatbush Avenue,+1-718-399-2000
-74.01024140000001,40.703485097545204,Kome Waza,japanese,Water Street,+16463681727
-73.95084140000002,40.783433597545205,Korali Estiatorio,greek;seafood,3rd Avenue,+1 646-964-5470
-74.00043000000001,40.68227559754521,Koto Sushi & Steak,japanese;sushi,Henry Street,+1-718-222-8055
-73.9897625,40.718093497545205,Kottu House,sri_lankan,Broome Street,+1-646-781-9222
-73.971451,40.792185997545204,Kouzan,japanese,Amsterdam Avenue,+1-212-280-8099
-73.98623140000001,40.7327112975452,Krust Pizzeria,pizza,East 14th Street,(212) 510-8869
-73.9888217,40.7194680975452,Kuma Inn,filipino;thai,Ludlow Street,(212) 353-8866
-73.9809181,40.7784814975452,Kumo Sushi,japanese,West 72nd Street,+1-212-580-6228
-73.8975972,40.700678497545205,Kum Wei Kitchen,chinese,Myrtle Avenue,+1-718-417-0097
-73.7635306,40.6744906975452,La Bari Pizza,pizza,Farmers Boulevard,+1-718-525-3185
-73.9011417,40.71537279754521,La Bella Mariella,pizza;pasta,Fresh Pond Road,+1-718-366-6170
-73.90205390000001,40.6996160975452,La Bella Pizza and Chicken,pizza;chicken,Seneca Avenue,(718) 386-5555
-73.6372185,42.694666897545204,La Bella Pizza & Restaurant,italian,Main Avenue,518-283-0800
-73.9283746,40.702351897545206,L.A. Burrito,mexican;burrito,Wilson Avenue,+1-718-381-4740
-73.88131609999999,40.7561402975452,La Cabaña Argentina,argentinian,Northern Boulevard,+1-718-426-5977
-73.8984681,40.70933029754521,La Cabaña Jarabacoa,spanish;chicken,Fresh Pond Road,(718) 821-5880
-73.93317979999999,40.85044409754521,La Casa Del Mofongo,dominican,Saint Nicholas Avenue,(212) 740-1200
-73.97760090000001,40.687035697545205,La Caye,haitian,Lafayette Avenue,+1-718-858-4160
-73.9225432,40.7529870975452,La Choza del Gordo,colombian,Northern Boulevard,+1-718-707-0370
-73.90652109999999,40.713045697545205,La Cocina De Mama,dominican; chicken; salad; seafood; steak,Metropolitan Avenue,+1-718-417-4000
-73.853413,40.7109830975452,La Coya Restaurante,peruvian,Metropolitan Avenue,+1-718-793-8788
-73.8676219,40.7422221975452,La Esquina Criolla Restaurante,argentinian;criole,Corona Avenue,+1-718-699-5579
-74.0040979,40.6549073975452,La Familia,latin_american,4th Avenue,+1 718 832 7568
-73.993705,40.7275742975452,Lafayette,french,Lafayette,+1-212-533-3000
-78.8730965,42.884966397545206,Lafayette Brewing Company,american,Washington Street,+1 716 856 0062
-73.9875854,40.71637179754521,La Flaca,mexican,Grand Street,+1-212-692-9259
-73.66618259999998,40.6492818975452,La Flor De La Canela,peruvian,Atlantic Avenue,(516) 341-7107
-73.9055896,40.700399997545205,La Flor Del Paraiso,dominican,Cornelia Street,+1-718-381-2970
-73.91230290000001,40.69963839754521,La Fogata,mexican,Gates Avenue,+1-347-789-4989
-73.8842207,40.7450184975452,La Fusta Restaurante,argentinian,Baxter Avenue,+1-718-429-8222
-73.88136180000001,40.7499341975452,La Gran Uruguaya,Uruguayan,37th Avenue,+1-718-505-0400
-73.9239503,40.7434514975452,La Hacienda De Dan Julio,colombian,Queens Boulevard,+1-718-392-9903
-75.5442687,42.826510297545205,La Iguana,mexican,Broad Street,+1 315 824-0022
-74.07528620000001,40.6257173975452,Lakruwana,sri_lankan,Bay Street,+1 347 857-6619
-74.0001082,40.730673597545206,La Lanterna di Vittorio,italian,Macdougal St,2125295945
-77.6161016,43.161008097545206,La Luna,italian,Browns Race,+1-585-232-5862
-74.0061418,40.7446724975452,La Luncheonette,french,10th Avenue,+1 212 675-0342
-73.93519690000001,40.697252797545204,La Lupe Cantina,mexican,Jefferson Street,+1-347-715-2455
-73.9151273,40.699272797545206,La Mesita,mexican;burrito;taco;coffee,Myrtle Avenue,+1-718-366-8700
-73.8510054,40.7260230975452,L'Amour Glatt Kosher,glatt_kosher,Queens Boulevard,1 718 459-8800
-73.99286740000001,40.7135949975452,Lanzhou Ramen,noodle,East Broadway,(646) 998-3175
-73.96824649999999,40.754928797545205,La Pecora Bianca,italian,2nd Avenue,+1 212-899-9996
-73.9892277,40.743747897545205,La Pecora Bianca,italian,Broadway,+1 212 498 9696
-73.9276682,40.70387989754521,La Perla Del Ulua,honduran,Melrose Street,+1-718-366-9407
-73.552989,42.634321297545206,La Perla Restaurante,italian,State Highway 43,518-674-3774
-73.9948474,40.7550458975452,Larb Ubol,thai,9th Avenue,+1-212-564-1822
-73.9234603,40.761201897545206,La Rioja,latin_american,Broadway,+1-718-932-0101
-73.907576,40.697714997545205,La Rubia Restaurant,spanish;coffee,Wyckoff Avenue,+1-718-381-9847
-73.75166440000001,42.648631097545206,La Serre,continental,Green Street,518-463-6056
-73.9487171,40.7885716975452,La Shuk,french;moroccan,Lexington Avenue,+1 212-289-0089
-73.89665,40.705473897545204,Las Margaritas,mexican,Fresh Pond Road,+1-718-417-4040
-73.6245042,40.7103208975452,Las Palmeras,Salvadorian,Station Plaza,+1-516-485-4201
-73.9374319,40.8551564975452,Las Tapas,spanish,West 187th Street,(646) 590-0142
-73.8941068,40.70068959754521,Las Viandas,mexican;columbian;peruvian,Myrtle Avenue,3475295029
-73.9794715,40.745535497545205,La Tarte Flambée,alsatian;french,East 33rd Street,+1-917-261-2070
-73.9900495,40.7443203975452,Latin American Restaurant,Latin_American,West 26th Street,2126892570
-73.9808413,40.775050197545205,La Traviata Pizzeria,pizza,West 68th Street,+1-212-721-1101
-73.991158,40.73760879754521,Laut,thai,East 17th Street,+1 (212) 206 8989
-73.99569840000001,40.6877918975452,La Vara,spanish;basque,Clinton Street,+1-718-422-0065
-73.98265490000001,40.6774049975452,LBK,pizza;italian,Union Street,+1-347-889-5309
-73.9817677,40.7612817975452,Le Bernardin,french;seafood,West 51st Street,+1 (212) 554-1515
-73.96593790000001,40.7649914975452,Le Botaniste,international,Lexington Avenue,+1 917-262-0766
-73.91176390000001,40.6993556975452,Lee's Restaurant,noodle;chinese;tea,Myrtle Avenue,+1-718-366-0114
-73.951074,40.725777197545206,Le Fond,french,Norman Avenue,718 389 6859
-74.0067873,40.735139397545204,Left Bank,american,Perry Street,+1-212-727-1170
-73.98451159999999,40.671569297545204,Le Mistral,french;mediterranean,5th Street,+1-844-841-9019
-79.3322385,42.4380586975452,"Lena""s Pizza & Sub",pizza,Canadaway Street,716-673-1959
-73.86510109999999,40.710622797545206,Leone's Pizzeria,pizza,Cooper Avenue,+1-718-894-4132
-73.9534358,40.7879358975452,Le Pain Quotidien,french;italian,Madison Avenue,+16466633149
-73.9122059,41.9267882975452,Le Petit Bistro,french,East Market Street,(845) 876-7400
-73.9711618,40.7593749975452,Le Reve,mediterranean,East 54th Street,+1-212-755-7777
-73.9992736,40.7279110975452,Le Souk New York - Restaurant & Hookah Lounge,moroccan,Laguardia Place,+1-212-777-5454
-75.8548718,42.9303167975452,Les Pates Et Les Nouilles,thai,Albany Street,315 815 4213
-73.98763259999998,40.7380991975452,L'Express,french,Park Avenue South,+1 212-254-5858
-73.953693,40.782531997545206,Lex Restaurant,italian,Lexington Avenue,+1 212-860-5903
-73.9967369,40.7117880975452,LianJiangDongDai INC,chinese,Catherine Street,(347) 703-5202
-73.6421562,40.639744797545205,Lia's Pizzeria,pizza,Atlantic Avenue,+1-516-764-4971
-73.9504523,40.779983597545204,Libertador,argentinian,2nd Avenue,+1 212-348-6222
-73.95236159999999,40.717559797545206,Lilia,italian,Union Avenue,+1 718 576-3095
-73.9783219,40.759699997545205,Limani,seafood,Rockefeller Plaza,+1-212-858-9200
-73.6462582,40.797525097545204,LIMANI,seafood;greek;regional,Northern Blvd,516-869-8989
-73.9961727,40.7430465975452,Limón Jungle,mexican,7th Avenue,+1-212-243-1212
-73.9086754,40.8236930975452,Linda's Pizzeria,pizza,3rd Avenue,+1 718-292-3100
-73.6810827,40.588680497545205,Lindell Deli and Grocery,sandwich,Lindell Boulevard,516-432-9171
-73.9876343,40.7323434975452,Linen Hall,american;pub;brunch,3rd Avenue,+1-646-602-9316
-73.907336,40.699885697545206,Listo El Chimi,dominican,Myrtle Avenue,(347) 987-4944
-73.95170470000001,40.725599697545206,Lite Bites,diner,Manhattan Avenue,917 793 5776
-73.7991504,42.688429797545204,Little Anthony's,pizza,Central Avenue,+1 518 4595959
-77.0556137,42.1435306975452,Little Boomer's Burrito Bar,mexican,West Market Street,607-438-1117
-73.89804170000001,40.7081033975452,Little Egypt,mediterranean,Fresh Pond Road,+1-347-987-3860
-73.95085590000001,40.777308897545204,Little Frog Bistro & Bar,french,East 86th Street,+1 347-537-5786
-73.9515532,40.786298697545206,Little Luzzo's,italian,East 96th Street,+1 212-369-2300
-73.9831438,40.6652547975452,Little Purity,diner,7th Avenue,+1-718-369-1722
-74.0010177,40.7522143975452,Little Spain iniiii,spanish,Hudson Yards,+1-646-495-1242
-73.9801697,40.6873174975452,Livingston Diner,diner,Livingston Street,+1-718-522-6902
-73.8961287,40.712371897545204,Li Wan,chinese,Metropolitan Avenue,+1-718-417-0808
-73.9856804,40.66622009754521,Locanda Mariella,italian,6th Avenue,+1-718-499-2132
-73.9361488,40.845660597545205,Lola Lola Restaurant,latin_american,Saint Nicholas Avenue,(646) 559-0930
-73.9537168,40.7822962975452,Lolitas Kitchen,mexican,Lexington Avenue,2127225055
-73.93538079999999,40.697224397545206,Loma Bar & Grill,latin_american;sandwich;american;italian,Broadway,+1-718-443-0243
-73.8675658,40.7221426975452,London Lennie's,seafood,Woodhaven Blvd,+1 718 894-8084
-73.9888436,40.7193920975452,Los Feliz,mexican,Ludlow Street,(212) 228-8383
-73.91799250000001,40.703381797545205,Los Marineros,mexican,Wyckoff Avenue,+1-718-456-7696
-73.9436422,40.7117958975452,Los Morales,spanish,Grand Street,17182189441
-73.94452679999999,40.71142489754521,Los Primos,dominican,Grand Street,+1-718-486-8449
-73.9903694,40.660628597545205,Lot 2,american,6th Avenue,+1-718-499-5623
-73.99299029999999,40.6165580975452,Lou De Fong,asian;thai;japanese,18th Avenue,+1-347-702-5643
-73.8835719,40.74597949754521,Louie's Pizza,pizza,Baxter Avenue,+1-718-440-9346
-73.9067394,40.69994909754521,Ltauha Restaurant,coffee;american;sandwich;,Myrtle Avenue,+1-347-689-3462
-74.00036440000001,40.6818281975452,Lucali,pizza,Henry Street,+1 (718) 858-4086
-73.9197812,40.702256897545205,Lucha Lucha,mexican;burrito,Irving Avenue,+1-718-366-6069
-73.9121715,40.700326997545204,Lucky Garden,chinese,Wyckoff Avenue,+1-718-418-1002
-73.9159521,40.6997224975452,Lucy's Vietnamese Kitchen,vietnamese,Irving Avenue,+1-718-483-9837
-73.9549977,40.5992080975452,Luigi's Pizzeria,pizza,Avenue U,+1-718-382-9100
-73.98530129999999,40.7268987975452,Luke's Lobster,lobster_rolls,East 7th Street,+1 212 387-8487
-73.7856006,42.672814597545205,Luke's Pizzeria,pizza,North Allen Street,+1 518 4388200
-73.6683652,40.6579129975452,Lynbrook Eats,diner,Merrick Road,+1-516-887-4932
-73.98904350000001,40.751862597545205,Macaron Café,french;sandwich;salad,West 36th Street,+1-212-564-3525
-77.44229720000001,43.103866997545204,Mac's Philly Steaks,regional,North Main Street,585-377-0033
-73.9171554,40.867253397545205,Made In Mexico,mexican,10th Avenue,+1-646-726-4849
-73.9532693,40.7445922975452,Madera Cuban Grill,Cuban,Vernon Boulevard,1-718-606-1236
-73.80771709999999,40.76346259754521,Mad for Chicken,Korean_style_Chicken_Wings;Soju,Northern Boulevard,(718) 321-3818
-73.90643730000001,40.7019100975452,"Madison Barrel, Inc.",american;chicken;burger;sandwich;breakfast;soup;omelette,Seneca Avenue,+1-347-844-9260
-73.9038694,40.7040600975452,Madison Pizza,pizza; italian; pasta; sandwich,Madison Street,+1-718-831-8555
-73.9813099,40.781986397545204,Maison Kayser,french,Broadway,+1-212-873-5900
-73.97594409999999,40.7450493975452,Maison Thai,thai,2nd Avenue,+1 646 930 2085
-73.99466559999999,40.74385869754521,Malibu Diner,diner,West 23rd Street,+1 212-691-1369
-73.943061,40.789455997545204,Malii Thai Kitchen,thai,2nd Avenue,+1 212-289-2729
-73.7676195,40.755476697545205,Mama Lee,taiwanese,48th Avenue,+1 718 767-8680
-73.9277496,40.8661804975452,Mama Sushi,japanese,Dyckman Street,+1-212-567-2450
-75.9140509,42.089503697545204,Manni's Donuts And Diner,diner,Vestal Avenue,607-723-2217
-73.82759720000001,40.760342697545205,Mapo Galmaegi,Korean_BBQ;korean;wine;meat;lunch;Dinner,Roosevelt Avenue,718-460-6200
-73.85994579999999,40.731249297545205,Marani,georgian,63rd Road,+1 718 569-0600
-73.9360786,40.7022687975452,Marcelina's,mexican,Flushing Avenue,+1-718-418-9515
-73.99578879999999,40.6822387975452,Marco Polo Ristorante,italian,Court Street,+1-718-852-5015
-77.51865129999999,43.174876397545205,Mario's,italian,Empire Boulevard,+1-585-697-2006
-73.9885656,40.738796697545204,Mari Vanna,russian,East 20th Street,+12127771955
-73.9934934,40.741643397545204,Markt,belgian,6th Avenue,+1-212-727-3314
-73.9656773,40.710687297545206,Marlow & Sons,american,Broadway,+1-718-384-1441
-73.98463079999999,40.74450319754521,Marta,pizza; italian; coffee,East 29th Street,+1-212-651-3800
-73.9071579,40.7043037975452,Martiniello's Pizzeria,pizza;pasta,Onderdonk Avenue,+1-347-916-1959
-72.1413417,40.975357597545205,Mary's Marvelous,bakery,Main Street,+1 631 267 8796
-73.98113590000001,40.6856552975452,Masala Grill,indian,Atlantic Avenue,+1-718-875-9200
-73.8384035,40.7186447975452,Matiz Latin Restaurant,latin_american,Queens Boulevard,+1-718-880-1213
-74.00574040000001,40.7090684975452,Matryoshka,russian,Fulton Street,+12127668600
-73.9732863,40.7846269975452,Matsu,japanese,Columbus Avenue,+1-212-799-7922
-73.9034436,40.745803697545206,Matsuri,japanese,61st Street,7184241688
-73.9902995,40.7444333975452,Maui Onion,japanese,West 26th Street,+1 201 548 4388
-73.82234140000001,40.727201697545205,Max and Mina's Ice Cream Parlor,ice_cream,Main Street,(718) 793-8629
-73.9895824,40.7441556975452,Maysville,american,West 26th Street,+1 646-490-8240
-73.986427,40.7193834975452,Mazeish,middle_eastern,Rivington Street,(646) 653-2226
-73.9510401,40.77739119754521,Maz Mescal,mexican,East 86th Street,+1 212-472-1599
-73.96317009999999,40.710347297545205,Meadowsweet,american,Broadway,+1-718-384-0673
-73.9499062,40.680560297545206,"Melanie's Juice Bar, Restaurant & Bakery",trini,Fulton Street,+1 718 399-2960
-73.9846218,40.719130797545205,Melani Pizzeria,pizza,Rivington Street,212-673-3450
-73.8643632,41.16077709754521,Melike,turkish,Main Street,+1-914-502-0651
-73.9936447,40.75624659754521,Mercato,italian,West 39th Street,+1-212-643-2000
-73.9986292,40.740398897545205,Merchant's,american,7th Avenue,+1 212 366-7267
-73.9250036,40.76896339754521,Merzouka Cafe,moroccan,Crescent Street,+1 (718) 255-6369
-73.0681625,40.945709097545205,Mesita Coastal Cantina,mexican,Main Street,631-509-0050
-73.9701456,40.797441797545204,Metro Diner,diner,Broadway,+1 212-866-0800
-73.98606140000001,40.7541088975452,Mexicue,mexican,Broadway,+1 212-302-0385
-73.8237652,40.730129297545204,MexiKosher,mexican,Main Street,+1-212-580-2800
-73.98070009999999,40.6758313975452,Mezcal's,mexican,5th Avenue,+1 718 783 3276
-73.6980329,40.6644362975452,Mia's,pizza,Rockaway Avenue,+1-516-825-2117
-73.9237546,40.70167639754521,Mi Bella Dama,dominican; seafood,Knickerbocker Avenue,+1-718-628-4253
-73.88625340000002,40.8573174975452,Michaelangelo's Little Italy,italian; pizza; pasta,Arthur Avenue,+1-718-220-8455
-73.7034285,42.774344297545206,Mick's Pizza,pizza,Sargent Street,+1-518-238-2205
-73.9505975,40.7797881975452,Midnight Express Diner,diner,2nd Avenue,+1 212-860-2320
-73.91698829999999,40.69555239754521,Mi Lindo Mexico,mexican,Wilson Avenue,+1-718-484-3877
-73.9249689,40.70043609754521,Millie’s Cuban Café,cuban,Wilson Avenue,+1-347-425-8253
-73.83154379999999,40.763353097545206,Mingle,asian,Northern Boulevard,(718)-353-6978
-74.6496547,42.1476598975452,Ming Moon Chinese Restaurant,chinese,Main Street,+1-845-586-2188
-73.9904108,40.714329197545204,Ming's Cafe,chinese,Canal Street,(212) 978-1888
-74.001062,40.729468397545205,Mint Masala,indian,MacDougal Street,+1-212-777-2888
-73.98048100000001,40.7465244975452,Miraj Healthy Grill,middle_eastern,East 34th Street,+1-212-696-2818
-73.7891148,40.71227799754521,Mirch,indian,Hillside Avenue,(718) 262-8100
-73.9896705,40.7139367975452,Mission Chinese Food,chinese,East Broadway,(917) 376-5660
-73.9131054,40.7008138975452,Mi Sueno,mexican,Wyckoff Avenue,+1-718-821-6072
-73.9601311,40.675134197545205,Mi Tierra Restaurant,mexican,Classon Avenue,3474420352
-73.9518041,40.5856255975452,Mitoushi,japanese,Sheepshead Bay Road,+1 718-368-3255
-76.0741125,43.051660897545204,Mitsuba,ramen;noodle,Erie Boulevard East,+1-315-373-0038
-73.8928323,42.7695672975452,Mizu Sushi,japanese,State Street,+1 518 6305555
-73.7488594,40.72718549754521,MJ's Pizzeria,pizza,Hillside Avenue,+1-718-776-6056
-73.7044087,40.644947697545206,MoCA,Chinese;Japanese,Peninsula Boulevard,+1-516-295-8888
-73.9997484,40.727420597545205,Mocha Burger,burger,LaGuardia Place,+1-212-982-3800
-73.7367068,40.9541110975452,Modern On The Rails,american,Station Plaza,(914) 777-9300
-73.78422259999999,40.9089094975452,Modern Restaurant & Lounge,italian,Huguenot Street,914-633-9479
-73.9997885,40.7273229975452,Molcajete Taqueria,mexican,LaGuardia Place,+1-212-777-8226
-73.9502159,40.7802891975452,Móle,mexican,2nd Avenue,+1-212-289-8226
-73.9258662,40.7032124975452,Mominette,french,Knickerbocker Avenue,+1-929-234-2941
-73.99646070000001,40.7426475975452,Momoya,japanese,West 21st Street,+1 (212) 989-4466
-76.1191603,43.04140559754521,Mom's Diner,diner,Westcott Street,+1-315-477-0141
-73.9944064,40.685825197545206,Moo Burger,burger,Court Street,+1-718-246-8259
-73.9017882,40.72227259754521,Moon Palace Kitchen,chinese,Flushing Avenue,+1-718-894-2392
-76.4986321,42.440602897545205,Moosewood Restaurant,vegetarian,North Cayuga Street,607-273-9610
-73.97420090000001,40.679880497545206,Morgan's BBQ,barbecue,Flatbush Avenue,+1 718 622-2224
-73.9685534,40.7552034975452,Morning Star Cafe,diner,2nd Avenue,+1 212-588-1050
-73.9634801,40.710472497545204,Motorino,pizza,Broadway,+1-718-599-8899
-73.332136,40.838459897545206,Mozzarella's Pizza,pizza;italian,Jericho Turnpike,+16314620600
-73.89992509999999,40.700646197545204,Mr. Chen,chinese;japanese;thai,Myrtle Avenue,(718) 417-1008
-73.9482837,40.78738959754521,Mrs. An Thai,thai,East 99th Street,+1 212-933-9988
-73.9890275,40.7212780975452,Mr. Taka Ramen,ramen;japanese,Allen Street,+1 212 254 1508
-73.97821090000001,40.648361797545206,Mr Tong,chinese,Fort Hamilton Parkway,(718) 851-6324
-73.97483309999998,40.675133497545204,Mr Wonton,chinese,7th Avenue,+1-718-398-7088
-73.90478829999999,40.70123679754521,M&S Nice Bakery and Restaurant,ecuadorian,Seneca Avenue,+1-718-576-3625
-73.9896938,40.721183997545204,Ms. Yoo,korean,Allen Street,(917) 261-2490
-73.9988791,40.7443780975452,M-Thai,thai,8th Avenue,+1 212 229-9799
-73.9866647,40.729056697545204,MUD,brunch; sandwich; omelette; soup; salad; burrito,East 9th Street,+1-212-529-8766
-73.9498849,40.78005499754521,Mughlai,indian,2nd Avenue,+1 212-722-6262
-73.9903934,40.745290997545204,Mulberry & Vine,new_american,West 27th Street,+1 212 252 8468
-73.67942009999999,42.72290439754521,Muza,polish;german,15th Street,+15182716892
-73.98518829999999,40.717863097545205,Nakamura,japanese,Delancey Street,+1-212-614-1810
-73.9800666,40.6767360975452,Namaste,indian,5th Avenue,+1-718-857-1951
-73.9818478,40.775713497545205,Nanoosh,mediterranean,Broadway,+1-212-362-7922
-73.8047216,40.732951297545206,Napolis Pizzaria & Restaurant,pizza,69th Avenue,7183801172
-73.96061340000001,40.5877930975452,Nargis Cafe,Uzbek,Coney Island Avenue,+17188727888
-73.9697671,40.7969581975452,Naruto Ramen,japanese,Broadway,+1-212-222-0229
-73.9648578,40.5770621975452,National Restaurant & Nightclub,russian,Brighton Beach Avenue,718 646 1225
-73.91665379999999,40.6991138975452,New Apollo,chinese;spanish,Myrtle Avenue,+1-718-483-8288
-74.085386,40.6341969975452,New Asha Sri Lanka Restaurant,sri_lankan,Victory Boulevard,+1 718 420-0649
-73.8977509,40.86737209754521,New Capital,diner,West Kingsbridge Road,+1 718 584 9234
-73.91576529999999,40.688387997545206,New Choy Hing,chinese,Bushwick Avenue,+1-718-574-8755
-73.7029431,40.636322297545206,New Great Wall,chinese;sushi,Broadway,+1-516-792-0856
-73.67659559999998,40.658774797545206,New Hong Kong Restaurant,chinese,Merrick Road,(516) 599-7087
-73.95077509999999,40.7788724975452,New Ichiro,sushi,2nd Avenue,+1-212-369-6300
-73.99386059999999,40.615687597545204,New Jin Xin,chinese,18th Avenue,+1-718-837-2820
-73.9327435,40.860791397545206,New Leaf Restaurant,american,Margaret Corbin Drive,+1-212-568-5323
-73.834408,40.7069986975452,New Metro Sushi Cafe,japanese,Metropolitan Avenue,+17188508888
-73.90598620000002,40.7016552975452,New Mexico Place II,mexican; coffee;,Seneca Avenue,+1-347-987-3581
-73.9484087,40.777865297545205,New Sunny East 88,chinese,1st Avenue,+1 212-876-9332
-73.9862565,40.733076397545204,New Taco Grill,mexican,East 14th Street,(212) 353-3728
-73.9809473,40.642296697545206,New Taco King,chinese;mexican,Church Avenue,(718) 435-1899
-73.93719540000001,40.7091248975452,Newtown,mediterranean,Waterbury Street,+1-347-984-6215
-73.98673659999999,40.7477885975452,New Wonjo,korean,West 32nd Street,+1 212-695-5815
-73.93832809999999,40.72090829754521,Nhà Minh,vietnamese,Morgan Avenue,+1-718-387-7848
-74.00027220000001,40.71732999754521,Nha Trang Centre,vietnamese,Centre Street,+1-212-941-9292
-73.66522579999999,40.649495097545206,Nicco's Peruvian Bistro,peruvian,Centre Avenue,(516) 612-3409
-73.9995074,40.718812897545206,Nickel & Diner,diner,Howard Street,+1-646-870-6100
-73.9479303,40.782767297545206,Nick's Pizza,italian,2nd Avenue,(212) 987-5700
-76.06435259999999,42.09518899754521,Nick's Pizza & Restaurant,italian,East Main Street,(607) 785-3210
-73.8850148,40.856990497545205,Nike's Pizzeria,pizza; sandwich,East 189th Street,+1-347-297-2132
-74.0182068,40.708081297545206,Ningbo Cafe,chinese,South End Avenue,2127861888
-74.0093418,40.7165512975452,Ninja New York,japanese,Hudson Street,+1-212-274-8500
-76.04755420000001,42.0996683975452,Nirchi's Restaurant On The Avenue,italian,Washington Avenue,(607) 484-1604
-73.9265929,40.703666297545205,No. 1 Chinese Restaurant,chinese,Knickerbocker Avenue,+1-718-628-7867
-73.77467309999999,40.714690397545205,No 1 Halal Kitchen,chinese,Hillside Avenue,+1-718-217-8888
-73.99257800000001,40.725155197545206,Noho Star,american,Lafayette Street,+1 212 925-0070
-75.3789156,43.048648197545205,Nola's,fine_dining,West Park Row,3158533052
-73.1295871,40.92053889754521,Noodle House,noodle;chinese,North Country Road,+1-631-689-1089
-73.99755479999999,40.71354929754521,Noodle Q,chinese,East Broadway,+1 212-219-8223
-73.9793255,40.6832996975452,No Pork Halal Kitchen,chinese,4th Avenue,+1 718 875-9888
-76.47765090000001,42.4794973975452,Northeast Pizza,pizza,Cinema Drive,607 257 2757
-73.9485715,40.713998597545206,Northern Bell,Burgers_and_beer,Metropolitan Avenue,(718) 388-9040
-73.33864,40.8930003975452,Northport Delicatessen,deli,Fort Salonga Road,+1 631 261 1402
-73.9942984,40.6607474975452,Nostro Ristorante,italian,5th Avenue,+1-929-337-7053
-73.99312330000001,40.733934397545205,Num Pang,asian,East 12th Street ,+1 646-791-0439
-73.99110350000001,40.6000794975452,Nyonya,malaysian,86th Street,(718) 265-0888
-73.9502931,40.729026397545205,Oasis,kebab,Calyer Street,7183894680
-73.950724,40.77957589754521,Oaxaca Taqueria,mexican,2nd Avenue,+1 212-722-7272
-73.98658509999999,40.6881953975452,Oaxaca Taqueria,mexican,Hoyt Street,+1-718-855-5530
-73.8818816,40.749885797545204,Ocean Boil Restaurante Comida Del Mar,seafood;latin_american,37th Avenue,+1-929-296-6338
-73.9885345,40.7694559975452,Ocean Dragon,chinese,10th Avenue,212-245-7210
-76.2264839,43.1369255975452,Ocean Sushi,sushi;japanese,Oswego Road,+1-315-622-6050
-73.9821057,40.7240335975452,Oda House,georgian,Avenue B,+12123533838
-73.9834307,40.72644669754521,Odessa,diner; american; burger,Avenue A,+1-212-253-1470
-73.8278565,40.766046597545206,Oh! Bagel Cafe,Breakfest;bagels;coffee;sandwich,Union Street,(718) 539-5329
-73.9858155,40.7272531975452,Oiji,korean,1st Avenue,+1 646 767 9050
-74.00068490000001,40.728808797545206,Old Tbilisi Garden,international,Bleecker Street,+1(212)470-6064
-73.8693442,40.6514677975452,Olive Garden,italian,Gateway Drive,(718)348-1071
-76.03169059999999,42.0912066975452,Olive Garden,italian,Vestal Parkway East,(607) 748-5840
-74.0027401,40.7442217975452,Omai,vietnamese,9th Avenue,+1 212.633.0575;+1 212.633.0550
-73.65403149999999,40.696312297545205,Oma's Sushi,sushi,Hempstead Avenue,+1-516-481-3781
-73.9255588,40.6981670975452,OMG Pizza,pizza;appetizer;salad;burger,Myrtle Avenue,+1-718-455-4550
-73.9869647,40.7553036975452,Ootoya,japanese,West 41st Street,+1-212-704-0833
-73.9171262,40.7026827975452,Ops,pizza,Himrod Street,+1-718-386-4009
-73.99488740000001,40.684802897545204,Osaka,japanese,Smith Street,+1-718-643-0044
-73.67655450000001,40.6587659975452,Osaka,japanese;steakhouse,Merrick Road,(516) 596-4432
-73.9104751,42.0588291975452,Osaka,sushi,Broadway,(845) 757-5055
-77.75259609999999,43.105774497545205,Osaka Sushi,sushi,Chili Avenue,+1 585 571 4889
-73.99767259999999,40.7219323975452,Osteria Morini,italian,Lafayette Street,+1-212-965-8777
-73.9875162,40.729132897545206,Ottos's Tacos,mexican,2nd Avenue,+1 646-678-4018
-73.97001159999999,40.79492419754521,Ozen,asian,Amsterdam Avenue,+1 212 678 0300
-73.99436800000001,40.660222397545205,Pablito's,mexican;diner,5th Avenue,+1 718 499 4735
-73.99533829999999,40.74997909754521,Pad Thai,thai,8th Avenue,+1 212 268-2752
-73.9697542,40.761024297545205,Palace Restaurant,diner,East 57th Street,+1 212-319-8989
-73.91202940000001,40.7034022975452,Paloma's,mexican; nachos; burrito,Menahan Street,+1-718-552-2811
-77.0554203,42.1434825975452,Panasia,asian,West Market Street,607-936-6300
-73.99396259999999,40.66062269754521,Panchita's Place,mexican,5th Avenue,+1-917-909-0404
-73.2993343,40.91137909754521,Panda Chinese,chinese,Fort Salonga Road,631-757-3003
-73.1331435,40.865894997545205,Panera Bread,american;sandwich;bagel;breakfast;tea;coffee_shop,Alexander Ave.,6313662079
-74.0031075,40.6104657975452,Panino Rustico,sandwich,17th Avenue,7182366343
-73.9274671,40.86593169754521,Papasito,mexican,Dyckman Street,+1-212-544-0001
-73.95417940000002,40.779100297545206,Papaya King,hotdog,East 86th Street,2123690648
-73.9833132,40.742318397545205,Pappali,indian,East 27th Street,(212) 689-1999
-73.97766440000001,40.779338497545204,Pappardella,italian,Columbus Avenue,+1 212 595 7996
-74.0015417,40.70727879754521,Paris Cafe,french,South Street,(212) 240-9797
-73.9807509,40.764232797545205,Park Café,american,7th Avenue,+1 212-315-4567
-73.9505713,40.7218799975452,Park Luncheonette,pizza;brunch;cocktail,Driggs Avenue,3478449530
-74.0267822,40.6343373975452,Pashazade,international,3rd Avenue,718-921-9700
-73.9653704,40.766320697545204,Pastafina,pizza,Lexington Avenue,+1-212-535-6240
-73.9208502,40.6980777975452,Pastelitos Elvys,dominican,Wilson Avenue,+1-347-985-2399
-73.9997085,40.71671289754521,Pasteur,vietnamese,Baxter Street,+1-212-608-3656
-73.95910450000001,40.77437119754521,Pastrami Queen,jewish,Lexington Avenue,+1 212-734-1500
-73.7684395,40.759313197545204,Pate,sandwiches;fries;ice_cream;tea;coffee_shop,Bell Boulevard,347-235-0045
-73.92821479999999,40.8665532975452,Pat'e Palo,latin_american,Dyckman Street,+1-646-918-6242
-73.93480009999999,40.7971206975452,Patsy's Pizzeria,italian,1st Avenue,+1-212-534-9783
-73.9925887,40.7234462975452,Paulaner Brauhaus & Restaurant NYC,german,Bowery,+12127800300
-73.9584608,40.72965889754521,Paulie Gee's,pizza,Greenpoint Avenue,3479873747
-73.98731070000001,40.736738497545204,Paul & Jimmy's Ristorante,italian,East 18th Street,+1-212-475-9540
-73.9437807,40.68337489754521,Peaches HotHouse,chicken,Tompkins Avenue,+1 718 483-9111
-73.97538270000001,40.6869100975452,Peaches HotHouse,soul_food,South Elliott Place,+1-718-797-1011
-73.99441390000001,40.721733097545204,Peasant,italian,Elizabeth Street,+1 212 965 9511
-73.9865653,40.702531697545204,Pedro's,mexican; burrito; taco; nachos; enchilada,Jay Street,+1-718-797-2851
-73.82557249999999,40.7642549975452,Peking Empire,chinese;chicken;dumplings;fried_rice;sesame_seed_chicken,Northern Boulevard,(718) 762-3080
-73.9160889,40.6950593975452,Peking Garden,chinese,Wilson Avenue,+1-718-928-7577
-73.9747054,40.686899397545204,Pequeña,mexican,South Portland Avenue,+1-718-643-0000
-74.00327800000001,40.723880697545205,Pera SoHo,mediterranean,Thompson Street,+1-212-878-6305
-73.5087029,40.6599374975452,Per Un' Angelo Restaurant,italian,Byron Street,+1-516-783-6484
-73.6263074,40.705360997545206,Peruvian Restaurant,peruvian,Front Street,+1-516-292-5724
-73.7275934,40.777316797545204,Peter Luger Steak House,steak,Northern Boulevard,+1 516 487-8800
-73.9625564,40.7098661975452,Peter Luger Steak House,steak_house,Broadway,+1-718-387-7400
-74.02650159999999,40.6357727975452,Petit Oven,french,Bay Ridge Avenue,+1 718 833-3443
-73.9875038,40.748674697545205,Petit Poulet,french;bistro,West 33rd Street,+1 212-244-0440
-76.07045749999999,42.112002997545204,Phil's Chicken House,barbecue,Union Center Maine Highway,[607) 748-7574
-74.00441190000001,40.681163997545205,Phil's Crummy Corner,puerto_rican,Columbia Street,+1 718 246-1252
-73.9941385,40.6154351975452,Pho'18 Ave,vietnamese,18th Avenue,+1-347-374-6633
-73.8290421,40.7583778975452,Phở Hoàng,vietnamese,Kissena Boulevard,+1-718-762-6151
-73.9478668,40.778599297545206,Pho Shop,vietnamese,1st Avenue,+1 212-369-9888
-73.9590758,40.7435421975452,Piatto Wood Fire Pizza,pizza;italian,50th Avenue,+1-718-361-2751
-73.8190678,42.75778609754521,Pickles Deli,"sandwich,_pizza",Airport Park Boulevard,518-786-1653
-73.95357109999999,40.7825365975452,Pic Up Stix,chinese,Lexington Avenue,+1 212-860-7600
-73.90602109999999,40.712402497545206,Piekielko,polish,Forest Avenue,+1-718-366-6656
-73.98741070000001,40.736121997545204,Pierre Loti,mediterranean,Irving Place,+1 (212) 777-5684
-73.9945435,40.7605928975452,Pio Pio,peruvian,10th Avenue,+1 212-459-2929
-73.9471089,40.779657897545206,Pio Pio,peruvian,1st Avenue,+1 212-426-5800
-73.97143009999999,40.79295599754521,Pio Pio,peruvian,Amsterdam Avenue,+1 212 665-3000
-73.97763540000001,40.745342797545206,Pio Pio,peruvian,East 34th Street,+1 212-481-0034
-73.8833063,40.75562399754521,Pio Pio,peruvian,Northern Boulevard,+1-718-426-4900
-73.93983359999999,40.799484097545204,Pipo's,mexican,East 118th Street,+1-212-828-2382
-73.9968986,40.7426998975452,PitaCity,mediterranean,7th Avenue,+1-212-741-1405
-74.0078671,40.710955997545206,Pita Express,mediterranean,Ann Street,+1-212-571-2999
-73.89743,40.7079173975452,Pita Mediterranean Gyro And Grill,gyro;mediterranean,Fresh Pond Road,+1-888-990-7482
-73.8026282,41.188438897545204,Pizza 238,pizza,Saw Mill River Road,+1 914 941 5300
-75.1175357,42.47222709754521,Pizza 23 West,italian;pizza,State Highway 23,+1 607-432-4222
-73.9887696,40.7164278975452,Pizza a Casa - Pizza School,pizza,Grand Street,(212)228-5483
-73.9862557,40.676921797545205,Pizza Cotta-Bene,pizza,3rd Avenue,+1-718-722-7200
-76.0628875,42.095166797545204,Pizza Hut,pizza,East Main Street,(607) 754-3397
-73.9013605,40.713597097545204,Pizza Hut,pizza,Fresh Pond Road,+1-718-628-8700
-73.8227588,40.764890597545204,Pizza Hut,pizza,Northern Boulevard,718-886-2244
-75.8767832,43.96758839754521,Pizza Hut,pizza,State Street,315-786-0300
-74.00070799999999,40.674647097545204,Pizza Moto,pizza,Hamilton Avenue,+1-718-834-6686
-73.91621490000001,40.69991139754521,Pizza Party,pizza;beer,Irving Avenue,+1-347-787-7947
-73.9776583,40.6807977975452,Pizza Secret,pizza;italian,5th Avenue,+1 929 337 6245
-77.6146168,43.157585397545205,Pizza Stop,pizza,State Street,(585) 546-7252
-73.969148,41.5047163975452,Pizza & Stuff,pizza,Main Street,(845)-838-2222
-73.913023,40.700777697545206,Place Fried Chicken,chicken;pizza;american;burger,Wyckoff Avenue,+1-718-386-4137
-73.989682,40.726165097545206,Plant Food + Wine,american;health_food,2nd Avenue,+1-212-658-1948
-73.9384174,40.8475311975452,Poción Lounge,dominican,West 177th Street,(917) 472-7336
-73.9915727,40.755361097545205,Poketown,hawaiian,West 39th Street,+1-646-850-0572
-74.0013013,40.6876062975452,Pok Pok NY,thai,Columbia Street,+1 718 923-9322
-73.9385655,40.799654997545204,Polash,indian,3rd Avenue,+1-212-410-0276
-74.00028409999999,40.7300993975452,Pommes Frites,french_fries,MacDougal Street,+1-212-674-1234
-73.9883011,40.7443903975452,Pondicheri,indian,West 27th Street,+1 646 878 4375
-77.6303655,43.1749879975452,Popeyes,chicken,Lake Avenue,(585) 254-5777
-74.0024185,40.75045999754521,Porteño,argentinian,10th Avenue,+1 (212) 695-9694
-77.284173,43.227893597545204,Precious Chinese Restraunt,chinese,NY 104,+1-315-333-1199
-73.7238473,40.673202997545204,Pretty Toni's Cafe,soul,West Merrick Road,+1-516-285-8664
-73.9356816,40.79593479754521,Prime One 16,new american,1st Avenue,+1 646-590-2187
-73.99456479999999,40.7230152975452,Prince Street Pizza,pizza,Prince Street,+1 212-966-1960
-73.9602899,40.65869649754521,Prospect Pizza,pizza;italian,Flatbush Avenue,(347) 663-4410
-73.9485261,40.788889997545205,Pro Thai,thai,Lexington Avenue,+1 917-475-1494
-73.98144479999999,40.66332649754521,Provini,italian,8th Avenue,(718)369-2154
-73.90311240000001,40.7465772975452,Puebla Restaurant,mexican,61st Street,+1-718-205-2605
-73.96213730000001,40.678840597545204,Puerto Viejo,dominican,Grand Avenue,+1 718 398 3758
-73.9252095,40.7419873975452,Punda Tibetan,tibetan,47th Avenue,+1 718 8061845
-73.9751417,40.6798344975452,Purbird,chicken,6th Avenue,+1-718-857-2473
-73.9881105,40.7642433975452,Pure Thai Cookhouse,thai,9th Avenue,+1 212 581 0999
-73.98049830000001,40.6679500975452,Purity Diner,diner,7th Avenue,+1-718-840-0881
-73.95086429999999,40.774518097545204,PuTawn Local Thai Kitchen,thai,1st Avenue,+1 212-988-8800
-73.9506835,40.77964939754521,Pye Boat Noodle,thai,2nd Avenue,+1 212-427-3077
-73.9896877,40.757782197545204,Qi Bangkok Eatery,thai,8th Avenue,1 212-247-8991
-73.9988354,40.72922239754521,Quantum Leap,burger; wrap; salad; sandwich; coffee,Thompson Street,+1-212-677-8050
-73.9614902,40.760608997545205,Quantum Leap,vegetarian,1st Avenue,+1-212-371-3888
-73.9929218,40.725523697545206,Quartino Bottega Organica,italian,Bleecker Street,(212) 529-5133
-74.0075178,40.71462009754521,Racines NY,french,Chambers Street,+1-(212)227-3400
-74.0021429,40.7450122975452,Rafella Cafe,italian,9th Avenue,+1 212-741-3230
-74.0016434,40.7464193975452,Rail Line Diner,diner,West 23rd Street,+1 212-924-3709
-73.9532953,40.817145997545204,Rai Rai Ken,japanese,Amsterdam Avenue,+1-917-639-3342
-73.9765204,40.7799567975452,Raku,japanese,West 76th Street,+1-212-873-1220
-73.98846040000001,40.7196285975452,Ramen Ishida,japanese,Ludlow Street,(646) 590-3276
-73.99624940000001,40.720954297545205,Ramen Lab,ramen,Kenmare Street,+1 646 613-7522
-73.91859559999999,40.7657458975452,Ramen Okidoki,japanese,30th Avenue,+1 718 806 1677
-73.9770011,40.67210949754521,Rancho Allegre,mexican,Garfield Place,+1 718 369 2618
-73.9068348,40.700336297545206,Randy's Best and Freshest Chinese Food,chinese,Putnam Avenue,+1-718-381-1198
-73.9342665,40.7939234975452,Rao’s,italian,East 114th Street,+1 212-722-6709
-78.00206949999999,42.7187663975452,Ration Wine Bar,meats;cheese;breads;spreads;wine;beer;liquor;non_alcoholic_beverages,North Main Street,5852378581
-73.99176159999999,40.755438997545205,Rattle N Hum West,pizza;sandwich;breakfast;american,West 39th Street,+1-917-262-0423
-73.9854842,40.7456554975452,Ravagh Persian Grill,persian,East 30th Street,+1 (212) 696-0300
-73.95692729999999,40.801934597545205,RDV Rendezvous Harlem,american,Frederick Douglass Boulevard,212-222-8952
-74.0046873,40.640373397545204,Redang Island,Malaysian,8th Avenue,7186866680
-73.958708,40.7171210975452,Red Bowl,asian,Bedford Avenue,7183888898
-74.0064162,40.734187997545206,RedFarm,chinese,Hudson Street,+1-212-792-9700
-73.9820222,40.6661369975452,Red Hot II,chinese,7th Avenue,+1-718-369-2577
-73.9865838,40.73321459754521,Red House,chinese,East 14th Street,(212) 228-8288
-73.8700697,40.65093019754521,Red Lobster,seafood,Gateway Drive,(718)964-2057
-73.67007199999999,43.3294710975452,Red Lobster,seafood,Upper Glen Street,+1 518 761 0021
-76.02974809999999,42.0914516975452,Red Lobster,seafood,Vestal Parkway East,(607) 754-3787
-77.68805019999999,43.2074332975452,Red Robin,burger,Greece Ridge Center Drive,+1-585-333-7891
-76.0190821,43.034286697545205,Red Robin,burger,Towne Drive,315 637 6790
-76.4954801,42.439910997545205,Red's Place,pub;bar&grill,North Aurora Street,(607) 319-4486
-73.9840031,40.7508098975452,Reichenbach Hall,german,West 37th Street,+1-212-302-7744
-73.9854765,40.7217736975452,Remedy Diner,diner,East Houston Street,+1 212-677-5110
-73.9240167,40.74431349754521,Restaurant Bucharest,romanian,40th Street,+1 718 389 2300
-74.00647990000002,40.7400703975452,RH Rooftop Restaurant,american,9th Avenue,+1-212-217-2210
-73.98105670000001,40.667293697545205,Rice Thai,thai,7th Avenue,+1-718-832-9512
-73.91422,40.6991197975452,rico chimi,mexican; burger; sandwich,Myrtle Avenue,+1-718-366-3777
-73.9072579,40.700133197545206,Rico Pollo 1 Ridgewood,colombian;coffee;chicken,Myrtle Avenue,+1-718-497-1000
-77.0581893,42.143958497545206,Rico's Pizzeria,pizza,West Market Street,607-962-2300
-73.9344179,40.753352897545206,Rio Grande Churrascaria,steak_house,29th Street,+1 (718) 361-1707
-73.6195294,40.874844497545205,Ristorante Amalfi Pizzeria,italian,Forest Avenue,+1 (516) 801-6544
-73.3634497,44.983363397545205,Ristorante Casa Capitano,italian,Lake Street,+1-518-206-4232
-73.9606568,40.76172059754521,Ritz Diner,diner,1st Avenue,+1 212-319-4993
-73.9734647,40.739519797545206,Riverpark,american,East 29th Street,+1 212 729-9790
-73.8884134,40.8537396975452,Roberto's,italian,Crescent Avenue,+1 718 733-9503
-73.99726820000001,40.763034897545204,Robert's Steakhouse,steak,West 45th Street,+1-212-245-0002
-73.3391013,40.892943597545205,Robke's Country Inn,italian,Fort Salonga Road,+1 (631) 754-9663
-73.79902790000001,40.67396939754521,Rockaway Fishhouse,seafood,Rockaway Boulevard,+1-718-529-3576
-73.923843,40.7614020975452,Romano's Famous Pizza,pizza,Broadway,(718) 626-5292
-76.6632744,42.54264469754521,Ron Don's,american,Old Main Street,6073879222
-73.8623919,40.707734697545206,Room 55,american,88th Street,(718) 897-0055
-76.44443609999999,42.9445061975452,Rosalie's Cucina,italian,West Genesee Street Road,(315) 685-2200
-73.96268609999998,40.7589604975452,Rosa Mexicana,mexican,1st Avenue,+1-212-753-7407
-73.9831132,40.7711821975452,Rosa Mexicano,mexican,Columbus Avenue,+1-212-977-7700
-73.9184939,40.694137997545205,Rosario Pizza,pizza,Central Avenue,+1-718-455-0949
-73.9001214,40.7121746975452,Rosa's Pizza and Pasta,pizza;pasta,Fresh Pond Road,(718) 497-7672
-73.97824870000001,40.67569319754521,Rose Water,american;brunch,Union Street,+1-718-783-3800
-74.01048459999998,40.70417729754521,Route 66 Smokehouse,barbecue,Stone Street,+12129431602
-77.5061777,43.186971197545205,Royal Dynasty,chinese,Empire Boulevard,+1-585-671-5133
-73.77823070000001,42.670068097545204,Royal India,indian,Central Avenue,518-482-4555
-75.54431540000002,42.8265908975452,Royal India Grill,indian,Broad Street,+1 315 825-3555
-75.97597540000001,42.0946247975452,Royal Indian Bar and Grill,indian,Bunn Hill Road,+1-607-238-1346
-73.9082335,40.6997381975452,Royal Pizza,pizza,Myrtle Avenue,+1-718-497-7090
-73.9976338,40.717363797545204,Royal Seafood Restaurant,chinese,Mott Street,2122192338
-74.4711024,42.6803117975452,Rubbin Butts Bar-B-Q,barbecue,East Main Street,+1-518-234-7447
-73.98585909999998,40.6856132975452,Rucola,new_american,Dean Street,+1-718-576-3209
-73.90159609999999,40.74924029754521,Ruma's Kitchen,Bengali,61st Street,+1-718-898-9100
-73.9847037,40.763187597545205,Russian Samovar Restaurant and Piano Bar,russian,West 52nd Street,+1-212-757-0168
-73.8896901,40.74606709754521,Sabay,thai,Broadway,+1-718-424-9054
-74.0001116,40.726252597545205,Sadelle’s,seafood;bagel;,West Broadway,+1-212-776-4926
-73.9907082,40.7410206975452,Sagaponack Bar & Grill,seafood,West 22nd Street,(212) 229-2226
-73.79288890000001,40.711143097545204,Sagar Chinese,chinese,Homelawn Street,"718-657-3333,718-657-3334"
-73.9395672,40.8514030975452,Saggio,italian,West 181at Street,(212) 795-3080
-73.9929149,40.73353449754521,Saigon Market,vietnamese,University Place,+1 212-982-3691
-74.000637,40.729691097545206,Saigon Shack,vietnamese;coffee;noodle;sandwich,MacDougal Street,+1-212-228-0588
-73.765505,42.861343897545204,Saigon Spring,vietnamese,Route 9,+1 518 982 0425
-73.8917569,40.7011743975452,Sakura IV,sushi; japanese,Myrtle Avenue,+1-718-366-7888
-74.0031642,40.743646997545206,Salinas,spainish,9th Avenue,+1 212.776.1990
-73.91925309999999,40.704494497545205,Sal's Pizzeria,pizza,Wyckoff Avenue,+1-718-386-5299
-74.00362249999999,40.7201178975452,Saluggi's,italian,Church Street,+1 212-226-7900
-73.8495988,40.733425497545205,Salute Kosher,uzbek,108th Street,+1 718 275-6860
-77.682845,43.0900409975452,Salvatore's Old Fashioned Pizzeria,pizza,Scottsville Road,(585) 527-0200
-73.97723540000001,40.74933939754521,Sam's Place,italian,East 39th Street,+1-212-599-6360
-73.6985372,40.66393759754521,Sam's Steak & Grill,steak,Rockaway Avenue,+1-516-837-0007
-74.0078117,40.710924897545205,Sandwich House,italian,Ann Street,+1-212-566-6886
-73.9461178,40.71127529754521,Sandwich Shop,sandwich,Grand Street,+1-718-360-0737
-73.9378376,40.797217497545205,Sandy Restaurant,dominican,2nd Avenue,+1 212-348-8654
-73.9500995,40.780423197545204,San Matteo Pizzeria and Espresso Bar,italian,2nd Avenue,+1 646-852-6876
-74.0795189,40.6382761975452,San Rasa,sri_lankan,Corson Avenue,+1 718 420-0027
-73.906164,40.7002664975452,San Remo,pizza,Myrtle Avenue,+1-718-497-1903
-73.9006902,40.69672409754521,Santa Barbarita Pizzeria,pizza,Cypress Avenue,(347) 689-4992
-73.974827,40.67568709754521,Santa Fe Veracruzano,mexican,7th Avenue,+1-347-799-1178
-73.66992509999999,40.6517657975452,Santorini Pizza & Greek Restaurant,greek;italian,Atlantic Avenue,(516) 593-9600
-73.9980179,40.7147297975452,Sanu Ria,Indonesian; Malaysian,Doyers Street,2122332286
-73.97555909999998,40.7652199975452,Sarabeth's,american,Central Park South,+1 212-826-5959
-73.9831543,40.741437997545205,Saravanaa Bhavan,indian,Lexington Avenue,+1-212-684-7755
-73.98938340000001,40.720487197545204,Sauce,italian;coffee,Rivington Street,+1 212 420 7700
-73.91949029999999,40.70429279754521,Sazon Nunez,latin_american,Wyckoff Avenue,+1-347-750-7894
-74.0048455,40.740904197545206,Scarpetta,italian,West 14th Street,+1 212 691-0555
-73.5865364,42.9033028975452,Schag A Val,sandwich;pizza;pasta;breakfast;salad,Main Street,+1 (518) 753-7410
-73.9283593,40.86667589754521,Seawalk Restaurant,seafood,Dyckman Street,+1-212-568-9014
-73.92285079999999,40.7067737975452,Sea Wolf,seafood,Wyckoff Avenue,+1-718-366-3272
-76.0969298,43.0551392975452,Secret Garden,korean;japanese,Erie Boulevard East,+1-315-449-3333
-74.00677270000001,40.706420597545204,Semson Eatery,mediterranean,Maiden Lane,+12123616110
-74.00036920000001,40.7290193975452,Senza Gluten,italian;coffee,Sullivan Street,+1-212-475-7775
-73.9872728,40.7477981975452,Seoul Garden,korean,West 32nd Street,212-736-9002
-74.0111968,41.497257997545205,Seoul Kitchen,korean,Liberty Street,+1-845-563-0796
-74.00311359999999,40.723999897545205,Sessanta,italian; coffee,Thompson Street,+1-212-219-8119
-73.9885811,40.719880397545204,Set L.E.S,asian,Ludlow Street,(212) 982-8225
-74.7551615,43.740595197545204,Seventh Lake House Restaurant,regional,NY-28,315-357-6028
-73.95287490000001,40.7834917975452,Sfoglia,italian,Lexington,+1 212-831-1402
-73.9643022,40.807947997545206,Shake Shack,burger,Broadway,+1 212 932-3300
-73.95583640000001,40.709203597545205,Shalom Japan,japanese;jewish,South 4th Street,+1 718-388-4012
-73.9973429,40.717297497545204,Shanghai Cafe Delux,chinese,Mott Street,2129668698
-73.8304765,40.758813497545205,Shanghai You Garden Restaurant,chinese,40th Road,+1-718-886-2286
-73.9119381,40.774901697545204,Shawarmania,middle_eastern,31st Street,(718) 545-1800
-73.9246847,40.70027499754521,Shen Zhou,chinese; japanese,Wilson Avenue,+1-718-821-1172
-73.9570719,40.746006797545206,SHI,asian,Center Boulevard,+1-347-242-2450
-73.96814140000001,40.756221597545206,Shinya Shokudou,japanese,East 52nd Street,+1-212-230-1234
-73.9506892,40.7790135975452,Shoga Sushi & Oyster Bar,sushi,East 88th Street,+1 212-284-4635
-73.65535,40.59962509754521,ShoGun Hibachi,japanese;hibachi,Austin Boulevard,+1-516-889-8865
-74.01099559999999,40.703513797545206,Shorty's,cheese_steaks,Pearl Street,+12124803900
-73.98616,40.74359969754521,Shorty's,sandwich,Madison Avenue,+1-212-725-3900
-73.9947941,40.7135560975452,Shui Mei Cafe,chinese,East Broadway,(212) 791-2819
-73.9967525,40.7118604975452,Shun Wei,chinese,Catherine Street,(212) 964-7590
-73.646243,43.311757697545204,Siam Thai Sushi,thai,Maple Street,+1 518 792 6111
-73.99865190000001,40.71499339754521,Sichuan Hot Pot Cuisine,chinese,Pell Street,2122678886
-76.495788,42.4397495975452,Simeon's on the Commons,american,East State Street,607-272-2212
-74.0029091,40.6416755975452,Simon's BBQ,chinese,8th Avenue,7184310688
-73.9650709,40.6829726975452,Sisters,american;brunch,Fulton Street,+1 347 763 2537
-73.9609713,40.5778908975452,Skovorodka,russian,Brighton Beach Avenue,+17186153096
-73.9967808,40.7533878975452,Skylight Diner,american; burger; soup; salad; omelette; sandwich; breakfast,West 34th Street,+1-212-244-0395
-73.9836487,40.730168197545204,S'MAC,macaroni_and_cheese,1st Avenue,+1 212-358-7912
-73.9682057,40.80111879754521,Smoke Jazz & Supper Club,american,Broadway,+1 (212) 864-6662
-73.99391690000002,40.756364897545204,Snack EOS,greek,9th Avenue,(646) 964-4964
-73.9995427,40.7426481975452,Socarrat Paella Bar,spanish,West 19th Street,+1 (212) 462-1000
-73.9925742,40.69869469754521,Sociale,italian,Henry Street,+1 718 576-3588
-73.9855132,40.666383397545204,Soigne,american;french;brunch,6th Avenue,+1-718-369-4814
-73.9225562,40.6990736975452,Sol Sips,sandwich,Wilson Avenue,+1-718-683-0482
-73.7717235,41.627136097545204,Sonny's Restaurant & Pizzaria,italian;pizza,NY 82,+1 845 223 5308
-74.00546259999999,40.7089510975452,Sophie's Cuban Cuisine,caribbean,Fulton Street,+12126086769
-74.0076114,40.7146402975452,Sophie's Cuban Cuisine,cuban,Chambers Street,+1 212-608-9900
-77.0572614,42.1437921975452,Sorge's,italian,West Market Street,+1 607 937 5422
-73.9788574,40.66991749754521,Sotto Voce,italian;brunch,7th Avenue,+1-718-369-9322
-71.94221540000001,41.034683597545204,South Edison,seafood,South Edison Street,+1 631 668 4200
-73.8022872,41.1885097975452,Spaccarelli's,italian,Saw Mill River Road,+1 914 941 0105
-73.96801140000001,40.6933333975452,Spice & Grill,indian;nepalese,Myrtle Avenue,+17188752525
-73.94288259999999,40.7896916975452,Spice Hut,indian,2nd Avenue,+1 646-476-5853
-73.9500969,40.786764297545204,Spice Noodle,vietnamese; chinese,Lexington Avenue,+1-212-860-3399
-73.99307859999999,40.616475097545205,Spicy Bampa,chinese,18th Avenue,+1-718-236-8088
-75.97798320000001,42.095585097545204,Spiedie & Rib Pit,bbq;american,Vestal Parkway East,+1-607-729-2679
-74.00723599999999,40.718446097545204,Square Diner,american,Leonard Street,+1-212-925-7188
-74.0040288,40.708858797545204,Squires Diner,diner,Beekman Street,+1 212-285-2600
-74.0097553,40.712030797545204,Stage Door Deli,pizza,Vesey Street,+1-212-791-5252
-73.95746109999999,40.7175325975452,Station,american,North 7th Street,+1 7185 99 1596
-73.85172209999999,40.7265381975452,Stix Kosher Restaurant,tajik,Queens Boulevard,+1 718 275-5566
-71.9442547,41.036571597545205,St. Peter's Catch,seafood,South Erie Avenue,+16316687100
-73.9854304,40.727780597545205,Stromboli Pizza,pizza,Saint Marks Place,+1 212 673-3691
-72.9848709,40.9425417975452,Subway,sandwich,New York State Bicycle Route 25,(631) 928-6472
-76.07144140000001,42.11004539754521,Subway,Subs,Union Center Maine Highway,(607) 748-7833
-73.965194,40.80144409754521,Suma Sushi,japanese,Amsterdam Avenue,+1-212-280-5858
-73.90657420000001,40.753482897545204,Sum Fung,chinese,Northern Boulevard,+1-748-932-0411
-73.96865129999999,40.7995003975452,Sun-Chan,japanese,Broadway,+1-212-749-5008
-73.924048,40.744081097545205,Sunnyside Pizza,pizza,Queens Blvd,(718) 433 - 4040
-73.97153,40.5862565975452,Sunrise Chinese Food,chinese,Avenue Z,+1-718-891-1880
-73.96336059999999,40.6747649975452,Sunshine Co.,new_american,Washington Avenue,+1 347 750 5275
-73.71240949999999,40.736610197545204,Sunshine Grill & Kebab,kebab,Hillside Avenue,+1-718-343-2300
-73.98741770000001,40.702330397545204,Superfine,american,Front Street,+1-718-243-9005
-73.90192579999999,40.702808897545204,Super Pollo,chicken;fried_chicken;mexican,Woodward Avenue,+1-718-418-0808
-73.98525749999999,40.7229141975452,Supper,italian,East 2nd Street,+1-212-477-7600
-73.9693077,40.797573697545204,Sura,thai,Broadway,+1 212 665 8888
-73.99954809999998,40.728232997545206,Surya,indian,Bleecker Street,+1-212-875-1405
-73.9831373,40.7584349975452,Sushi By Bou,sushi,W 47th St,+1-917-348-5737
-73.828264,40.7642052975452,Sushi Family Express,sushi;japanese;Bento_Box;Sokai,Union Street,(718) 321-2231
-73.9814434,40.752376397545206,Sushi Ginza Onodera,sushi,5th Avenue,+1 212-390-0925
-73.94356140000001,40.81083619754521,Sushi Inoue,japanese,Malcolm X Boulevard,+1-646-766-0555
-73.9775762,40.7563919975452,Sushi-tei,japanese,East 47th Street,+1 212 753-3535
-73.7294553,40.617647297545204,Sushi Tokyo,sushi,Central Avenue,+1-516-882-2244
-73.7911301,40.76762399754521,Sushi Village,sushi;japanese,Francis Lewis Boulevard,+1-718-886-4733
-73.9146306,40.7539069975452,Sushi X,sushi,34th Avenue,+1 718-728-9600
-73.983463,40.7795706975452,Sushi Yasaka,japanese,West 72nd Street,+1-212-496-8460
-73.9847293,40.6708474975452,Sushi Yashin,sushi,5th Avenue,+1 718 788-6789
-73.93949029999999,40.85137799754521,Sushi Yu 2,japanese,West 181st Street,+1-212-781-8833
-74.0018443,40.707782097545206,SUteiShi,japanese,Peck Slip,+12127662344
-73.9932265,40.74812699754521,Swagat,indian,West 29th Street,+1-212-967-7373
-73.9031473,40.74648289754521,Sweet Basil,thai,61st Street,+1-718-205-008
-73.97251920000001,40.6775995975452,Sweet Chick,southern,Flatbush Avenue,+1 718 484 7724
-73.9886645,40.744731697545205,Sweetgreen,salads,Broadway,+1 646 449 8884
-72.3549394,41.0833173975452,Sweet Tomato's,italian,Grand Avenue,6317494114
-73.88963879999999,40.749311997545206,Swim Two Birds,american,37th Avenue,+1 (347) 843-9922
-73.9580035,40.650219097545204,Sybil's Bakery & Restaurant,guyanese,Church Avenue,+1 718 469-9049
-73.95684399999999,40.802076897545206,Szechuan Garden Kitchen,chinese,Frederick Douglass Boulevard,212-666-6868
-73.9835488,40.75235589754521,Szechuan Gourmet,chinese;tea,West 39th Street,+1-212-921-0233
-73.99146540000001,40.6707081975452,Table 87 Coal Oven Pizza,pizza;italian,3rd Avenue,+1 718 965 8400
-73.99279320000001,40.7346460975452,Taboonette,middle_eastern,East 13th Street,(212) 510-7881
-73.96205479999999,40.6095148975452,Taci's Beyti,turkish,Coney Island Avenue,+1 718 627-5750
-73.9883579,40.70055949754521,Taco Dumbo,mexican,Prospect Street,+1-347-202-0306
-73.9386694,40.797201197545206,Taco Mix Grill,mexican,East 116th Street,+1 212-289-2963
-73.86286209999999,40.7484130975452,Tacos Mexico,mexican,103rd Street,+1-718-505-0332
-73.9491006,40.7110084975452,Taj Kabab King,indian,Grand Street,+1-718-782-1722
-73.9295238,40.6844178975452,Taj Masala,indian,Malcolm X Boulevard,+1-347-378-2655
-73.9224422,40.74405449754521,Takesushi,japanese,42nd Street,+1-718-729-8253
-73.93647840000001,40.8505834975452,Tampopo Ramen,noodle;japanese,Bennett Avenue,+1-212-923-0575
-73.9556075,40.7770648975452,Tandoor Oven,indian,East 83rd Street,212-628-3000
-73.991263,40.7432660975452,Tappo,pizza,24th Street,2128079200
-73.9145861,40.698994997545206,Taqueria Acatlan,mexican;coffee,Irving Avenue,+1-718-456-2095
-73.9158319,40.702353597545205,Taqueria Cocoyoc,mexican,Wyckoff Avenue,+1-718-497-4489
-73.929124,40.704423997545206,Taqueria El Fogon,mexican,Flushing Avenue,+1-718-497-7445
-73.8978882,40.7078991975452,Taqueria Kermes,mexican;spanish;tapas;american,Fresh Pond Road,+1-347-463-9263
-73.9503675,40.6727049975452,Taqueria Milear,mexican,Nostrand Avenue,+1 718 484 8005
-73.9256805,40.70029199754521,Taqueria Sofia,mexican; burrito; quesadilla; taco,Suydam Street,+1-347-318-8208
-73.8548784,40.836214297545204,Taqueria Tlaxcalli,mexican,Starling Avenue,+1 347 851-3085
-73.97450649999999,40.67966359754521,Taro Sushi,sushi,Flatbush Avenue,+1-718-398-5240
-73.8966972,40.705563297545204,Taste of China,tex-mex;chinese;american;mexican,Fresh Pond Road,+1-718-628-5797
-73.90132609999999,40.700346597545206,Tasty's Diner,american;coffee;sandwiches;burger,Myrtle Avenue,(718) 456-0954
-77.6013319,43.161039697545206,Tavern58 at Gibbs,Tavern_Fare,University Ave,585.546.5800
-73.9092283,40.7752741975452,Taverna Kyclades,greek;seafood,Ditmars Boulevard,+1-718-545-8666
-73.91400859999999,40.7753199975452,Telly's Tavern,greek,23rd Avenue,+1-718-728-9056
-73.9829947,40.665436797545205,Ten-Ichi Ramen,japanese,7th Avenue,+1-718-369-8809
-73.993913,40.61523429754521,Tenzan,japanese,18th Avenue,+1-718-621-3238
-73.97794499999999,40.778264797545205,Tenzan,sushi,Columbus Avenue,+1-212-580-7300
-73.95022259999999,40.7796227975452,Tenzan 89,japanese,2nd Avenue,+1 212-369-3600
-73.9382816,40.68327639754521,Tepache,mexican,Halsey Street,+1-718-484-7701
-73.9618119,40.6938093975452,Tepango,mexican,Myrtle Avenue,+1-718-636-8878
-73.9787879,40.760132797545204,Teresa's,pizza,West 51st Street,212-265-7988
-74.0129228,40.7065633975452,TGI Friday's,american,Broadway,+1 212-483-8322
-77.6913671,43.206866997545205,TGI Friday's,american,Greece Ridge Center Drive,+1-585-723-6300
-73.9999657,40.71624959754521,Thai Jasmine Restaurant,thai,Bayard Street,+1-212-349-3132
-73.9567486,40.7781312975452,Thai @ Lex,thai,Lexington Avenue,+1 212-288-6060
-73.99993640000001,40.7163269975452,Thailicious,thai,Baxter Street,+1-917-261-2733
-73.9652703,40.80131269754521,Thai Market,thai,Amsterdam Avenue,+12122804575
-73.8173014,40.58895979754521,Thai Rock,thai,Beach 92nd Street,+1-718-945-5111
-73.97347090000001,40.7899331975452,Thai Season,thai,Amsterdam Avenue,212 721-0566; 212 721-0533;212 721-0557
-73.99501540000001,40.7548070975452,Thai Select,thai,9th Avenue,+1-212-695-9920
-73.94913829999999,40.781135897545205,THAIs New York,thai,2nd Avenue,+1 212-289-8889
-73.768837,40.75876629754521,That's A Wrap,wraps;salad,Bell Boulevard,+1-718-428-9727
-73.9838618,40.7512973975452,The Australian NYC,australian,West 38th Street,+1 212-869-9601
-73.5969655,40.874106997545205,The Basil Leaf Cafe and Restaurant,italian,Birch Hill Road,(516) 676-6252
-73.98950500000001,40.7257659975452,The Black Ant,mexican,2nd Avenue,+1-212-598-0300
-73.9881244,40.745681897545204,The Breslin,gastropub,West 29th Street,+1 212-679-1939
-73.91260390000001,40.70051209754521,The Bushwick Diner,american;coffee;burger;bagel;sandwich;pastry,Wyckoff Avenue,+1-718-552-2455
-73.9229601,41.70211419754521,The Chill Grill,american,Main Street,+1 (845) 454-1115
-73.812851,40.79316339754521,The Clinton Restaurant,italian,Clintonville Street,+1-718-746-4800
-73.97232890000001,40.752277797545204,The Comfort Diner,diner,East 45th Street,+1 212-867-4555
-79.03534499999999,43.09527099754521,The Como Restaurant And Lounge,italian,Pine Avenue,+1 716 285 9341
-73.832554,40.7593403975452,The COOP Restaurant and Bar,korean,Prince Street,(718) 358-9333
-73.9554168,40.6772869975452,The Crabby Shack,seafood,Franklin Avenue,+1-718-484-1507
-73.98420440000001,40.74510819754521,The Crooked Knife,irish; coffee,East 30th Street,+1-212-696-2593
-73.9475594,40.78098529754521,The Drunken Munkey,indian,East 92nd Street,+1-646-998-4600
-76.64856280000001,42.5367130975452,The Falls Restaurant,american;diner;breakfast;burger;fish_and_chips;local;pancake;sandwich,East Main Street,6073879761
-73.9675352,40.6395540975452,The Farm on Adderley,new_american,Cortelyou Road,7182873101
-73.9855015,40.7685603975452,The Flame,greek;diner,9th Avenue,+1 212-765-7962
-74.01427729999999,40.67596429754521,The Good Fork,korean,Van Brunt Street,718.643.6636
-73.9931439,40.7337802975452,The Grey Dog,sandwich;burger;salad,University Place,+1-212-966-1060
-73.9957088,40.722961297545204,The Grey Dog,sandwich;salad;brunch,Mulberry Street,+1-212-966-1060
-73.9884959,40.7482961975452,The Harold,american;breakfast,Broadway,+1-212-686-1888
-74.0020772,40.70807829754521,The Hideaway Seaport,american,Peck Slip,+12123852222
-78.0177851,42.7099486975452,The Hole in the Wall,pizza;burger;sandwich;american,Standpipe Road,+1-585-237-3003
-73.9685194,40.755253397545204,The Horny Ram,american,2nd Avenue,+1-917-261-4136
-76.14687070000001,43.049633197545205,The Jamerican Diner,jamaican,East Washington Street,315 424 7090
-73.8674171,40.89976399754521,The Kitchen,american,Katonah Avenue,(718) 798-1002
-75.919933,44.3370203975452,The Kitchen at Captain Visger,regional;international,Church Street,315-681-3422
-73.98717059999998,40.74774579754521,The Kunjip,korean,West 32nd Street,+1 212-564-8238
-78.7250228,42.9324198975452,The Landing Bar and Grill,american;burger;pizza,Genesee Street,(716) 204-2290
-77.6946054,42.55988339754521,The Leaning Tower,pizza,Main Street,(585) 335-2740
-73.9721247,40.758477797545204,The Lobster Club,japanese;sushi;fine_dining,East 53rd Street,+1-212-375-9001
-73.94684050000001,40.7759935975452,The Mansion Restaurant,diner,York Avenue,+1 212-535-8888
-76.16963179999999,43.0740565975452,The Market Diner,diner,Park Street,+1-315-474-5247
-73.994034,40.761252997545206,The Marshal,american,10th Avenue,212-582-6300
-73.98666170000001,40.7219018975452,The Masala Wala,indian,Essex Street,+1 (212) 358-9300
-73.9822068,40.67972799754521,The Meat Hook,burger;american;brunch,Douglass Street,+1 718 522 2110
-73.99874100000001,40.72481179754521,The Mercer Kitchen,american,Prince Street,+12129665454
-73.9770877,40.761080797545205,The Modern - The Bar Room,french,West 53rd Street,212-333-1220
-73.9074547,40.81274119754521,The Original Venice Restaurant,italian,East 149th Street,+1-718-585-5164
-73.9948035,40.7036769975452,The River Café,new_american,Water Street,+1 718 522 5200
-73.9104377,40.7042564975452,The Seneca,american,Seneca Avenue,+1-347-599-0010
-73.9936332,40.7265472975452,The Smile,american,Bond Street,+1 646 329 5836
-76.1506273,43.050714897545205,The Sweet Praxis,american,East Water Street,+1 315 216 7797
-73.9854632,40.72703889754521,The Tang,chinese,1st Avenue,6466783092
-73.99937220000001,40.7284095975452,The Underdog,american,Bleecker Street,+1-212-253-8300
-73.98641500000001,40.758744097545204,The View Restaurant & Lounge,american,Broadway,+1 212 704 8900
-74.00222600000001,40.73695579754521,The Waverly Inn,american,Bank Street,+19178281154
-73.9242916,40.70004389754521,The Wheelhouse,sandwich,Wilson Avenue,+1-718-483-9970
-77.6358288,43.1315234975452,The Wok,chinese,Genesee Street,5852357888
-78.6715672,42.9089258975452,The Yelling Goat,barbecue,Central Avenue,+17166830462
-73.99355030000001,40.7524435975452,Tick Tock Diner,diner,8th Avenue,+1 212-268-8444
-73.7947166,40.73472069754521,Tienda Vieja,colombian,Fresh Meadow Lane,+1-718-321-3644
-73.9869037,40.76150659754521,Times Square Diner & Grill,diner,8th Avenue,+1 212-315-2400
-73.9311014,40.70360139754521,Tina's Place,american;wrap;pancake;sandwich,Flushing Avenue,+1-718-497-6890
-73.9869288,40.719539897545204,Tinys Giant Sandwich Shop,sandwich; salad; breakfast,Rivington Street,+1-212-228-4919
-73.9224149,40.760729497545206,Tipp Inn,italian,Broadway,+1-718-728-0489
-74.00469179999999,40.7090349975452,T.J. Byrnes,irish,Fulton Street,+12124064551
-73.999578,40.7287190975452,Toloache,mexican,Thompson Street,+1-212-420-0600
-73.92926259999999,40.704672097545206,Tomo,japanese,Flushing Avenue,+1-718-456-3695
-73.96540350000001,40.8054303975452,Tom's Restaurant,diner,Broadway,+1 212-864-6137
-73.9962431,40.6133502975452,Tony Pepperoni,pizza,18th Avenue,+1-718-484-8073
-73.9601344,40.690471497545204,Tony's Pizza Spot,pizza,DeKalb Avenue,781-622-6395
-73.993044,40.733875997545205,Tortaría,mexican,University Place,+1-212-776-1830
-73.90456400000001,40.72055189754521,Total Fish Land,seafood,Flushing Avenue,+1-718-894-1605
-77.5763128,43.1423079975452,TRATA,american,Culver Road,585-270-5460
-73.8948799,40.7011525975452,Trattoria Cerbone,italian,Fresh Pond Road,+1-718-386-4400
-74.0031019,40.731185597545206,Trattoria Pesce Pasta,italian;seafood,Bleecker Street,+1 212-645-2993
-73.9983208,40.72903629754521,Tre Giovani,italian;pizza;pasta;tuscan,LaGuardia Place,+1-212-475-7420
-73.95351579999999,40.78836489754521,Tre Otto,italian,Madison Avenue,+1 212-860-8880
-73.99317420000001,40.742057597545205,Tres Carnes,mexican,6th Avenue,+1 212 989 8737
-73.92556090000001,40.70046099754521,Tres Marias,mexican; taco,Wilson Avenue,+1-718-417-1015
-74.0071958,40.716203297545206,Tribeca Kitchen,american,Church Street,2122275100
-73.9005153,40.713096097545204,Tropical,ecuadorian;seafood;chicharron;ceviches,Fresh Pond Road,+1-718-821-2600
-73.94341709999999,40.826284197545206,Tsion Cafe,Ethiopian,Saint Nicholas Avenue,+1-212-234-2070
-73.97607509999999,40.6748511975452,TSL,american;jamaican,Union Street,+1-347-889-5005
-73.8265332,40.760174897545205,T-swirl Crêpe,crepe;fruits,Union Street,(917) 285-2521
-74.0137692,40.641989697545206,Tulcingo,mexican,5th Avenue,+1-718-439-2896
-73.9221402,40.743859797545205,Turkish Grill,turkish,Queens Boulevard,+1-718-392-3838
-73.9220163,40.7438429975452,Turkish Grill & Bar,turkish,Queens Boulevard,+1-718-392-3838
-74.00734059999999,40.735744997545204,Turks and Frogs,turkish,West 11th Street,+1-212-691-8875
-73.97027829999999,40.79724139754521,Turkuaz,turkish,Broadway,+1 212 665 9541
-73.98644540000001,40.748191997545206,Turntable Chicken Jazz,chicken,West 33rd Street,+1-212-714-9700
-76.22538440000001,43.138920397545206,Twin Trees,pizza;italian,Oswego Road,+1-315-652-2700
-74.0004115,40.747389897545204,Txikito,basque,9th Avenue,+1 212-242-4730
-73.9635088,40.6773592975452,Udom Thai,thai,Washington Avenue,+1-718-622-8424
-73.9960941,40.6779479975452,Ugly Baby,thai,Smith St,+1-347-689-3075
-73.9943981,40.7212761975452,Uncle Boons,thai,Spring Street,+1 646 370 6650
-73.9956756,40.7214198975452,Uncle Boons Sister,thai,Mott Street,+1 646-850-9480
-74.0000031,40.7287239975452,Uncle Ted's,chinese;coffee,Bleecker Street,+1-212-777-1395
-75.0947887,42.4549313975452,Undercover Eggplant,Sandwich/Salads,Chestnut Street,607 432 9900
-73.9853637,40.678172497545205,Union Cafe & Restaurant,diner,Union Street,+1 718 797 1117
-75.8795528,43.968840897545206,United China Restaurant,chinese,Eastern Boulevard,315-782-4432
-73.98802140000001,40.700815997545206,Untamed Sandwiches,sandwich,Prospect Street,+1-718-360-2956
-74.00825259999999,40.735250797545206,Upholstery Store: Food and Wine,seafood,Washington Street,+1-646-460-3114
-73.957809,40.7698980975452,Up Thai,thai,2nd Avenue,+1 212-256-1199
-73.71262390000001,40.7366124975452,Usha Foods,indian,Hillside Avenue,+1-718-343-1500
-73.98123559999999,40.77879269754521,Utopia Restaurant,diner,Amsterdam Avenue,+1 212-873-6233
-74.00702609999999,40.74087029754521,Valbella,italian,West 13th Street,+1-212-645-7777
-73.93370159999999,40.7430465975452,Van Dam Diner,american,Van Dam Street,+17183928371
-73.9917863,40.7182306975452,Vanessa's Dumpling House,chinese;dumplings;noodle,Eldridge Street,+1-212-625-8008
-73.9137484,40.6994506975452,Vaqueros,mexican,Myrtle Avenue,(718) 381-1042
-73.96516390000001,40.576504897545206,Varenichnaya,russian,Brighton 2nd Street,+17183329797
-73.98034840000001,40.7423564975452,Vatan,indian,3rd Avenue,+1-212-689-5666
-73.9921429,40.7547857975452,Venisalvi Cafe,mediterranean;tapas,West 38th Street,+1-347-839-8559
-73.95802950000001,40.7173677975452,Vera Cruz,mexican,Bedford Avenue,+1-718-486-3333
-73.98805240000002,40.740739497545206,VERTS Mediterranean Grill,mediterranean,East 23rd Street,+1 646-858-0609
-73.9870274,40.72897059754521,Veselka,ukrainian,2nd Avenue,+1 212-228-9682
-73.92771009999998,40.769703197545205,Vesta,italian,30th Avenue,+1-718-545-5550
-73.9876519,40.7278964975452,Via Della Pace,italian,East 7th Street,+1 (212) 253-5803
-73.95050479999999,40.77919889754521,Vietnaam,vietnamese,2nd Avenue,+1 212-722-0558
-73.6775328,40.6589349975452,Villa Formia Of Lynbrook,italian;italian_pizza;pizza,Merrick Road,(516) 599-4200
-73.9643368,40.8078892975452,Vine Sushi & Sake,japanese,Broadway,+1-212-222-3568
-73.9836941,40.724674797545205,Violet,american;pizza,East 5th Street,646-850-5900
-73.96477270000001,41.1970591975452,Vito & Ariel Pizzeria & Deli,Italian_Restaurant,Broadway,845-429-6453
-76.49540959999999,42.4397476975452,Viva Taqueria,mexican,North Aurora Street,607-277-1752
-73.9880373,40.723549297545205,V-Nam Cafe,vietnamese,1st Avenue,(212) 780-6020
-73.9892394,40.72911349754521,VSpot,Latin,Saint Marks Place,+1-212-254-3693
-73.98857559999999,40.7432890975452,Wagamama,ramen,5th Avenue,+1 (212) 920-6233
-74.00558290000001,42.7939205975452,Wagon Train BBQ,barbecue,Mariaville Road,(518) 356-0650
-73.952497,40.777175297545206,Wahlburgers,burger,2nd Avenue,+1 646-858-3890
-74.0070516,40.7197094975452,Walker's,burger,North Moore Street,+1 212 9410142
-74.0082138,40.73541869754521,Wallsé,austrian,West 11th Street,+1-212-352-2300
-73.9013429,40.7028803975452,Wan's Garden,chinese,Forest Avenue,(718) 381-1176
-73.994785,40.6147698975452,Wasabi,japanese,18th Avenue,+1-718-331-3933
-74.0006911,40.7314198975452,Washington Square Dinner,breakfast; burger; salad; greek,West 4th Street,+1-212-533-9306
-73.9945155,40.685604997545205,Watty & Meg,american,Court Street,+1-718-643-0007
-74.0002038,40.7331218975452,Waverly Diner,diner,6th Avenue,+1 212-675-3181
-73.92073859999999,40.685795897545205,Weng's Garden,chinese,Hancock Street,(718) 574-8979
-73.90660859999998,40.702042397545206,While In Kathmandu,nepalese,Seneca Avenue,+1-718-386-3416
-73.8491312,43.00386439754521,White House Restaurant,regional,Milton Avenue,(518) 885-6797
-73.9793591,40.67826689754521,Wild,american;pizza;brunch,5th Avenue,+1-347-987-4525
-73.9625166,40.712796497545206,Wild,gluten-free,Bedford Avenue,+1 347.599.0699
-73.9891428,40.720004597545206,Wildair,american,Orchard Street,(646) 964-5624
-73.647185,40.7010376975452,Wing Wan,chinese,Hempstead Avenue,+1-516-292-9309
-73.90685429999999,40.690120797545205,Win Xin Kitchen,sushi; japanese; mexican; chinese,Wilson Avenue,+1-718-919-1151
-73.953102,40.780347797545204,Wok 88,chinese,3rd Avenue ,+1-212-828-8688
-75.9759871,42.094328497545206,Wok 'n Roll,asian;japanese;chinese,Bunn Hill Road,+1-607-759-7786
-73.721642,40.6233947975452,Wok Tov,sushi,Central Avenue,+1-516-295-3843
-74.0391219,41.434633897545204,Woody's Farm to Table,burger,Quaker Avenue,845-534-1111
-73.9864972,40.7474401975452,Woorijip,korean,West 32nd Street,+1 212-244-1115
-73.895769,40.7036545975452,Wow Bagel,bagel,Fresh Pond Road,+1-718-381-5700
-73.98995699999999,40.71391899754521,Wu's Wonton King,chinese,East Broadway,(212) 477-1111
-73.9693605,40.798437097545204,Xi'an Famous Foods,chinese,Broadway,+1 212-786-2068
-73.9937134,40.71362659754521,Xing Wong BBQ,chinese,East Broadway,(212) 779-8899
-73.96131120000001,40.6824586975452,Xochitl,mexican,Fulton Street,+1 718 857 2424
-73.96567940000001,40.800807997545206,Yasha Ramen,japanese,Amsterdam Avenue,+1-212-222-2995
-73.98648109999999,40.6917365975452,Yaso Tangbao,dumpling;shanghainese,Lawrence Street,+1-929-337-7599
-73.8950998,40.701741997545206,Ye Garden,chinese,Fresh Pond Road,+1-718-417-3667
-73.9466042,40.780353397545205,Yeti Spice Grill,indian,1st Avenue,+1 646-590-0942
-73.89295209999999,40.68015059754521,Yolanda Restaurant,spanish,Jamaica Avenue,(718) 277-1737
-73.9844632,40.749908897545204,Yoon Haeundae Galbi,korean;bbq,West 36th Street,+1-212-244-5345
-77.51538690000001,43.090299697545206,Yotality Frozen Yogurt,Frozen_Yogurt,South Main Street,(585) 967-3938
-73.9055572,40.700443297545206,Yummy Chinese,chinese,Cornelia Street,(718) 386-8883
-73.94675090000001,40.7801609975452,Yummy Sushi,japanese,1st Avenue,+1 212-996-3666
-73.9785105,40.643326597545204,Yummy Taco,mexican,Church Avenue,(718) 431-8062
-73.94834159999999,40.781630097545204,Zebu Grill,brazilian,East 92nd Street,+1-212-426-7500
-73.9290349,40.6975450975452,Zefe's,mexican;american,Myrtle Avenue,+1-718-919-8561
-73.8953095,40.7024081975452,Zenith Thai,thai,Fresh Pond Road,+1-718-497-8899
-73.9208098,40.762904397545206,Zenon Taverna,greek,31st Avenue,(718) 956-0133
-74.01073290000001,40.70355829754521,Zigolini's,mexican,Pearl Street,+12124253127
-74.0106469,40.7033195975452,Zigolini's Gourmet Deli,thai,Water Street,+12123616313
-73.88112640000001,40.7017670975452,Zum Stammtisch,german,Myrtle Avenue,+1 718 386-3014
-73.9804064,40.7779076975452,Zurutto,japanese,West 72nd Street,+1-212-498-0022
